postcode,name,search_postcode,latitude,longitude
37001–37099,Göttingen,37073,51.53420248904508,9.935046853974795
53511–53518,Adenau,53518,50.38258593523809,6.92941693904762
34521–34537,Bad Wildungen,34537,51.11048592208685,9.116244682354097
66441–66450,Bexbach,66450,49.35951914945237,7.261806431117779
"97335, 97337",Dettelbach,97337,49.80513660739269,10.153645467408586
"37125,37127",Dransfeld,37127,51.4881409644638,9.747194832652449
35109–35110,Frankenau,35110,51.097461039293286,8.92151136826855
64501–64521,Groß-Gerau,64521,49.90673971623085,8.48022408338233
01801–01809,Heidenau,01809,50.96044879056065,13.854581950703365
37230–37235,Hessisch Lichtenau,37235,51.203117437166945,9.712110514637438
"55216, 55218, 55262, 55263",Ingelheim am Rhein,55263,49.97743950025543,8.118287339974456
99446–99448,Kranichfeld,99448,50.85655763172738,11.19080325640423
33162–33165,Lichtenau,33165,51.61019709508496,8.878718579633986
66651–66663,Merzig,66663,49.44928497780627,6.632617494169041
01841–01844,Neustadt in Sachsen,01844,51.028116306576294,14.214654368128064
23854–23858,Reinfeld (Holstein),23858,53.83285294511111,10.493913992666666
"18540, 18546",Sassnitz,18546,54.514147068573116,13.622729011615565
01851–01855,Sebnitz,01855,50.95944896337705,14.27247162842623
02679–02681,Wilthen,02681,51.09061084582346,14.412456142920616
"35614,35630 (Heinrichsegen)Vorlage:Infobox Gemeinde in Deutschland/Wartung/PLZ enthält Text",Aßlar,35614,50.59343475086646,8.45017913427625
78267,Aach,78267,47.84204984036061,8.854742132732317
52062–52080,Aachen,52062,50.77643283176553,6.086669673288873
"73430–73434, 73453",Aalen,73430,48.83874607033844,10.085620109546616
91183,Abenberg,91183,49.23760620916201,10.951095987821228
93326,Abensberg,93326,48.81903613154418,11.853234060115607
77855,Achern,77855,48.62782060512745,8.058864495020748
28832,Achim,28832,53.01313779561926,9.039392380679345
74740,Adelsheim,74740,49.395312086819885,9.39391579967167
08626,Adorf/Vogtl.,08626,50.3298126001226,12.240908368083367
48683,Ahaus,48683,52.08738832591691,6.976113009989791
"59227, 59229",Ahlen,59227,51.77418550355921,7.896546688336755
22926,Ahrensburg,22926,53.67416454223983,10.23154698246309
86551,Aichach,86551,48.453751673319296,11.126217119326215
72631,Aichtal,72631,48.626768222100516,9.240643809600515
"06385,06386 (Kleinzerbst)Vorlage:Infobox Gemeinde in Deutschland/Wartung/PLZ enthält Text",Aken (Elbe),06385,51.85097907172549,12.047776260745097
72458–72461,Albstadt,72458,48.2134289877732,9.020098558226804
31061,Alfeld (Leine),31061,51.98261185981143,9.814504635945786
35469,Allendorf (Lumda),35469,50.6780708700361,8.825169059265944
06542,Allstedt,06542,51.45049304492386,11.424966098984772
72275,Alpirsbach,72275,48.34053771434245,8.418350160105915
52477,Alsdorf,52477,50.86715897314591,6.177654567350015
36304,Alsfeld,36304,50.753715208049535,9.274531029489165
06425,Alsleben (Saale),06425,51.656052833870966,11.62815845184332
84503,Altötting,84503,48.22530410354985,12.674964084743202
90518,Altdorf bei Nürnberg,90518,49.38462051411424,11.355110829428808
58762,Altena,58762,51.29211041710976,7.692400289251804
"01773,01778 (Fürstenau, Fürstenwalde, Geising, Lauenstein, Liebenau, Müglitz)Vorlage:Infobox Gemeinde in Deutschland/Wartung/PLZ enthält Text",Altenberg,01773,50.77312071187394,13.745470516657287
04600,Altenburg,04600,50.98915201713903,12.436142729131861
57610,Altenkirchen (Westerwald),57610,50.685571737163,7.651404623517212
72213,Altensteig,72213,48.58942840077464,8.604997959894366
17087,Altentreptow,17087,53.69475428923669,13.248308259637561
15345,Altlandsberg,15345,52.57226872849589,13.867439602937718
63755,Alzenau,63755,50.08610845654704,9.070072010184287
55232,Alzey,55232,49.7484957690489,8.092249231810854
35287,Amöneburg,35287,50.76686602320675,8.920546595358651
92224,Amberg,92224,49.44603081313679,11.859803613074279
63916,Amorbach,63916,49.64215420864469,9.222079965860807
"99831, 99826",Amt Creuzburg,99831,51.06861685072077,10.288486714842499
06577,An der Schmücke,06577,51.28734249608939,11.182969560893854
56626,Andernach,56626,50.42841509754872,7.391261739007308
16278,Angermünde,16278,53.022398814865376,13.991409349715585
17389 (Anklam mit Gellendin) 17392 (Pelsin mit Stretense)Vorlage:Infobox Gemeinde in Deutschland/Wartung/PLZ enthält Text,Anklam,17389,53.849124606956515,13.694717882401656
09456,Annaberg-Buchholz,09456,50.57909423749557,13.022158088151828
06925,Annaburg,06925,51.7065483906682,12.99075593187404
76855,Annweiler am Trifels,76855,49.20576265731895,7.970698842578326
91522,Ansbach,91522,49.298528363271224,10.57379797679089
99510,Apolda,99510,51.020358068708546,11.491383144986344
39619,Arendsee (Altmark),39619,52.85654703728972,11.45789771915888
39596,Arneburg,39596,52.687728804056604,11.937138369669812
24399,Arnis,24399,54.6308878126506,9.932422418072289
"59755, 59757, 59759, 59821, 59823",Arnsberg,59755,51.45298080035655,7.971916339053958
99310,Arnstadt,99310,50.82829621820652,10.972804016480179
06456,Arnstein,06456,51.675932607632504,11.4707411975265
97450,Arnstein,97450,49.98278817890625,9.947846025
06556,Artern,06556,51.36396821823339,11.299109105307942
95659,Arzberg,95659,50.05541224049587,12.180613484865702
"63739, 63741, 63743",Aschaffenburg,63739,49.97487913787543,9.155639588175783
06449,Aschersleben,06449,51.75801762518223,11.47540338437902
71679,Asperg,71679,48.90464417152235,9.138872284964052
57439,Attendorn,57439,51.12973718608424,7.902137452909659
97239,Aub,97239,49.552445193333334,10.06498501111111
"08280 (Aue),08301 (Bad Schlema)Vorlage:Infobox Gemeinde in Deutschland/Wartung/PLZ enthält Text",Aue-Bad Schlema,08280,50.59466315780193,12.687611616859904
08209,Auerbach/Vogtl.,08209,50.50520918976073,12.404773929575338
91275,Auerbach in der Oberpfalz,91275,49.68979467088949,11.61477241509434
86150–86199,Augsburg,86150,48.36560426278902,10.895563052601156
09573,Augustusburg,09573,50.80630663103206,13.107066370940473
88326,Aulendorf,88326,47.94298209170306,9.639335215866085
07955,Auma-Weidatal,07955,50.70316486318639,11.914969425367362
"26603, 26605, 26607",Aurich,26603,53.47153926404233,7.4847045097566145
64832,Babenhausen,64832,49.95246480325591,8.944041799502282
55422,Bacharach,55422,50.060040964365975,7.75696836035313
"71522, 71570",Backnang,71522,48.945315838769474,9.436511907722052
83043,Bad Aibling,83043,47.86407958060582,12.004958085708477
34454,Bad Arolsen,34454,51.37580912363847,9.014829027095404
14806,Bad Belzig,14806,52.15723994086514,12.59487303946565
48455,Bad Bentheim,48455,52.29873676222439,7.13092583604888
76887,Bad Bergzabern,76887,49.10157646892039,8.00606241995638
99438,Bad Berka,99438,50.89787459350858,11.271187809656652
57319,Bad Berleburg,57319,51.04237468431573,8.40020000835469
95460,Bad Berneck im Fichtelgebirge,95460,50.04200386994261,11.672652358751794
29549,Bad Bevensen,29549,53.07818053381443,10.585021450309277
06647,Bad Bibra,06647,51.20517174,11.533616565178146
07422,Bad Blankenburg,07422,50.683363782495945,11.261313933468395
97769,Bad Brückenau,97769,50.316166180308876,9.802447848262549
24576,Bad Bramstedt,24576,53.916192183737024,9.868197053171857
53498,Bad Breisig,53498,50.50427132942691,7.28833895492595
88422,Bad Buchau,88422,48.07655354494382,9.609819466292135
65520,Bad Camberg,65520,50.30307595574038,8.267080631148076
04849,Bad Düben,04849,51.59773227700794,12.582225573124449
67098,Bad Dürkheim,67098,49.46001653347777,8.164315121213264
06231,Bad Dürrenberg,06231,51.290601465111344,12.078235775397667
78073,Bad Dürrheim,78073,48.01047586663022,8.564764106805137
18209,Bad Doberan,18209,54.10297437627677,11.898144737747117
33014,Bad Driburg,33014,51.72379992793004,9.028212697024884
08645,Bad Elster,08645,50.28078239968051,12.246861372603833
56130,Bad Ems,56130,50.331901516125,7.720383199875
29683,Bad Fallingbostel,29683,52.88021320290404,9.719544217550506
"76530, 76532, 76534",Baden-Baden,76530,48.76316516736149,8.241326839879319
95671,Bärnau,95671,49.801745333139536,12.403735023255814
06567,Bad Frankenhausen/Kyffhäuser,06567,51.35630290877193,11.117715718546366
16259,Bad Freienwalde (Oder),16259,52.80562681705361,14.03280667940059
74177,Bad Friedrichshall,74177,49.234458312018326,9.21345030726932
37581,Bad Gandersheim,37581,51.87202664680535,10.024688608915305
01816,Bad Gottleuba-Berggießhübel,01816,50.85575987903477,13.955146825376234
94086,Bad Griesbach im Rottal,94086,48.46223973961749,13.19296352021858
53557,Bad Hönningen,53557,50.51875920352564,7.311510196153846
38667,Bad Harzburg,38667,51.890489663054666,10.549607121672025
76332,Bad Herrenalb,76332,48.80639637356924,8.445963344342507
36251,Bad Hersfeld,36251,50.88403536882291,9.708288497624602
"61348, 61350, 61352",Bad Homburg vor der Höhe,61348,50.22636355606796,8.611379175520112
53604,Bad Honnef,53604,50.648215816065665,7.2545304841899885
49186,Bad Iburg,49186,52.152425447540985,8.05492499648712
64732,Bad König,64732,49.742505931108894,9.002483304581673
97631,Bad Königshofen im Grabfeld,97631,50.29891184098639,10.47499219404762
07586,Bad Köstritz,07586,50.90789224769175,11.982257887640857
93444,Bad Kötzting,93444,49.17826233353752,12.85668632105666
34385,Bad Karlshafen,34385,51.63985223794695,9.456141102998847
97688,Bad Kissingen,97688,50.19977953612053,10.08142398071563
"55543, 55545, 55583Vorlage:Infobox Gemeinde in Deutschland/Wartung/PLZ enthält Text",Bad Kreuznach,55543,49.83868596655196,7.865968092773572
79189,Bad Krozingen,79189,47.92154089964413,7.691899862411033
57334,Bad Laasphe,57334,50.92943093431122,8.372912113860545
99947,Bad Langensalza,99947,51.1107732556804,10.650253836912192
06246,Bad Lauchstädt,06246,51.38535848491424,11.843793778508925
04651,Bad Lausick,04651,51.14382349394416,12.651553744789618
37431,Bad Lauterberg im Harz,37431,51.62327568268551,10.446202570848056
36448,Bad Liebenstein,36448,50.82072395949319,10.348621248260212
"04924,04895 (Burxdorf),04931 (Kosilenzien, Langenrieth, Möglenz, Neuburxdorf)Vorlage:Infobox Gemeinde in Deutschland/Wartung/PLZ enthält Text",Bad Liebenwerda,04924,51.524713691758826,13.392621794839389
75378,Bad Liebenzell,75378,48.77352145780261,8.74193668603352
33175,Bad Lippspringe,33175,51.78360656532593,8.818721702542764
07356,Bad Lobenstein,07356,50.45400493980061,11.637098371932515
31848,Bad Münder am Deister,31848,52.207934403482426,9.437049773003196
53902,Bad Münstereifel,53902,50.54476284157192,6.801018880940876
56470,Bad Marienberg (Westerwald),56470,50.647613406521735,7.948539170807454
97980,Bad Mergentheim,97980,49.4744392735619,9.779562724487162
02953,Bad Muskau,02953,51.544758468453935,14.682464537220199
61231,Bad Nauheim,61231,50.37177957028661,8.742812243531422
31542,Bad Nenndorf,31542,52.33735993362328,9.373094209769153
53474,Bad Neuenahr-Ahrweiler,53474,50.54160114781898,7.121287937377318
97616,Bad Neustadt an der Saale,97616,50.323760618633536,10.211542116563148
"32545, 32547, 32549",Bad Oeynhausen,32545,52.19251560425532,8.79742710869044
23843,Bad Oldesloe,23843,53.80829137272254,10.371958748429636
63619,Bad Orb,63619,50.22735147595287,9.348045269923771
31812,Bad Pyrmont,31812,51.980541422065166,9.251991565261141
74906,Bad Rappenau,74906,49.23821908129706,9.083231611157215
83435,Bad Reichenhall,83435,47.736598966592425,12.89275229836674
96476,Bad Rodach,96476,50.33473082097441,10.79594954682081
79713,Bad Säckingen,79713,47.5601480424173,7.949388468625954
18334,Bad Sülze,18334,54.118933788095234,12.628003584625851
37441,Bad Sachsa,37441,51.58253375829493,10.554096893087557
31162,Bad Salzdetfurth,31162,52.068056112455515,10.012439760587188
"32105, 32107, 32108",Bad Salzuflen,32105,52.08790296560469,8.746992222678683
"36433, 36469[2]",Bad Salzungen,36433,50.819963334207124,10.238898040114455
88348,Bad Saulgau,88348,48.007657203656464,9.467829889880953
01814,Bad Schandau,01814,50.91436978182968,14.163525840387857
06905,Bad Schmiedeberg,06905,51.696292796950644,12.735237672901604
88427,Bad Schussenried,88427,48.0024425858156,9.651819934751773
65307,Bad Schwalbach,65307,50.142889256210076,8.066567818772178
23611,Bad Schwartau,23611,53.91884892515714,10.696908594910317
23795,Bad Segeberg,23795,53.94189109738469,10.30807496680932
55566,Bad Sobernheim,55566,49.78906342666013,7.643911802028131
63628,Bad Soden-Salmünster,63628,50.291048939968,9.374637945664
65812,Bad Soden am Taunus,65812,50.147540469491176,8.49520500960197
37242,Bad Sooden-Allendorf,37242,51.27168576604966,9.973232330293454
96231,Bad Staffelstein,96231,50.10129305403884,11.006252455136504
"99518, 99510",Bad Sulza,99518,51.07890230595122,11.620820396682927
83646,Bad Tölz,83646,47.759600807605345,11.557607752723536
75385,Bad Teinach-Zavelstein,75385,48.692718025265954,8.694105740159575
99955,Bad Tennstedt,99955,51.16494357853659,10.834553305365853
72574,Bad Urach,72574,48.48600498072799,9.410992746388262
61118,Bad Vilbel,61118,50.184265215477204,8.73960362594166
86825,Bad Wörishofen,86825,48.0065501820132,10.603835128783592
33181,Bad Wünnenberg,33181,51.52648872537807,8.717077813137996
88339,Bad Waldsee,88339,47.91639972537089,9.745778399079812
75323,Bad Wildbad,75323,48.755570434481434,8.557767608457711
19336,Bad Wilsnack,19336,52.95846737845468,11.941068161515602
74206,Bad Wimpfen,74206,49.22900253568593,9.157951021790913
91438,Bad Windsheim,91438,49.50444368295255,10.417808695254832
88410,Bad Wurzach,88410,47.900092595617174,9.891355251878354
52499,Baesweiler,52499,50.91411341292362,6.186980119258978
91083,Baiersdorf,91083,49.65920358234666,11.036217027680001
72336,Balingen,72336,48.265541007685066,8.862256033311358
06493,Ballenstedt,06493,51.68280813144387,11.173875504692175
58802,Balve,58802,51.33238285272379,7.864180543635368
"96047, 96049, 96050, 96052",Bamberg,96047,49.893800442664805,10.887738107753018
"39249,39240 (Breitenhagen, Groß Rosenburg, Lödderitz, Sachsendorf, Zuchau)Vorlage:Infobox Gemeinde in Deutschland/Wartung/PLZ enthält Text",Barby,39249,51.96346067722222,11.84350598611111
22941,Bargteheide,22941,53.72590977986578,10.260334395831862
25355,Barmstedt,25355,53.79123153192328,9.770209026537048
32683,Barntrup,32683,52.0015490420389,9.12286961311239
30890,Barsinghausen,30890,52.31077264935305,9.481139344577942
18356,Barth,18356,54.36832696319164,12.689943656399906
15837,Baruth/Mark,15837,52.044738818108975,13.499866981089744
27211,Bassum,27211,52.8660711975224,8.734621908961518
35088,Battenberg (Eder),35088,51.013479428692875,8.64010050074389
55774,Baumholder,55774,49.612502060666195,7.335106356059532
96148,Baunach,96148,49.98873646119632,10.84018000161043
34225,Baunatal,34225,51.252148768065915,9.409365134530473
02625,Bautzen,02625,51.181240187184116,14.430260746080455
"71032, 71034",Böblingen,71032,48.68362168135295,9.024059991566
04564,Böhlen,04564,51.2124052065312,12.386572174383163
74357,Bönnigheim,74357,49.03796318987286,9.101000646733889
"95444, 95445, 95447, 95448",Bayreuth,95444,49.943959830404395,11.576451904942585
36179,Bebra,36179,50.96644256626249,9.80755884914408
59269,Beckum,59269,51.767381300406996,8.039340780131347
50181,Bedburg,50181,50.99628109751911,6.553489137689512
14547,Beelitz,14547,52.25569024890244,12.927137315048782
15848,Beeskow,15848,52.16398634115942,14.20858780425121
"92339, 92345",Beilngries,92339,49.02357136853147,11.482590528671329
"71717, 71543, 71720Vorlage:Infobox Gemeinde in Deutschland/Wartung/PLZ enthält Text",Beilstein,71717,49.04455052261568,9.322057337346553
"04874, 04889Vorlage:Infobox Gemeinde in Deutschland/Wartung/PLZ enthält Text Vorlage:Infobox Verwaltungseinheit in Deutschland/Wartung/PLZ falsch",Belgern-Schildau,04874,51.47167004832636,13.11689003294979
56170,Bendorf,56170,50.432093014546965,7.57448803117207
64625,Bensheim,64625,49.6891520801158,8.61703050943432
92334,Berching,92334,49.11568034920634,11.44076615925926
"07980, 07570",Berga-Wünschendorf,07980,50.75256099714519,12.158968998042415
29303,Bergen,29303,52.796695727228204,9.979885806562194
18528,Bergen auf Rügen,18528,54.42088849642763,13.431921600157605
"50126, 50127, 50129",Bergheim,50126,50.95579911302791,6.628999188555807
"51427, 51429, 51465, 51467, 51469",Bergisch Gladbach,51427,50.95701093266368,7.11576999580269
59192,Bergkamen,59192,51.61913935407658,7.631383363236508
51702,Bergneustadt,51702,51.02606466669364,7.665195605463375
10115–14199,Berlin,10115,52.53174394532251,13.387824315463478
16321,Bernau bei Berlin,16321,52.67301085906142,13.568443324610076
"06406, 06392",Bernburg (Saale),06406,51.79093890535486,11.745680512349475
54470,Bernkastel-Kues,54470,49.9186739343617,7.061773880106384
02994,Bernsdorf,02994,51.375061405835005,14.061709023591549
02748,Bernstadt a. d. Eigen,02748,51.04680930313725,14.826901198666668
49593,Bersenbrück,49593,52.553927673297295,7.944002424756756
74354,Besigheim,74354,49.000205244719034,9.157027553927625
57518,Betzdorf,57518,50.78695277975626,7.876412786797562
91282,Betzenstein,91282,49.67410553376455,11.41487609767141
37688,Beverungen,37688,51.66258751543368,9.357753908014455
88400,Biberach an der Riß,88400,48.0918040259719,9.792263675487655
35216,Biedenkopf,35216,50.91438254954521,8.519395025708935
33602 – 33739,Bielefeld,33602,52.021729117810175,8.535165000457404
16359,Biesenthal,16359,52.75888822688486,13.64673790981882
74321,Bietigheim-Bissingen,74321,48.951552356830604,9.122389706946196
48727,Billerbeck,48727,51.97969946494136,7.297253306221315
55411,Bingen am Rhein,55411,49.95250877358517,7.916820235711277
55765,Birkenfeld,55765,49.64807311698825,7.164069983724833
97653,Bischofsheim in der Rhön,97653,50.400568691332474,10.005354072962485
01877,Bischofswerda,01877,51.127098634319985,14.196395913890502
"39628, 39629",Bismark (Altmark),39628,52.64127676482214,11.682770760079052
54634,Bitburg,54634,49.971338857506204,6.526239455645161
"06749, 06766, 06803, 06808",Bitterfeld-Wolfen,06749,51.626129419741694,12.323424546540592
"06502 (Timmenrode),38889 (Blankenburg (Harz), Cattenstedt, Heimburg, Hüttenrode, Wienrode),38895 (Derenburg)Vorlage:Infobox Gemeinde in Deutschland/Wartung/PLZ enthält Text",Blankenburg (Harz),06502,51.75072712585358,11.041437637114248
99444,Blankenhain,99444,50.85566203504425,11.35822238820059
89143,Blaubeuren,89143,48.41769184743183,9.796689765123652
89134,Blaustein,89134,48.4189769698087,9.901774119822567
"21354, 19273Vorlage:Infobox Gemeinde in Deutschland/Wartung/PLZ enthält Text",Bleckede,21354,53.28493277297688,10.739119320953757
99752,Bleicherode,99752,51.43354027078537,10.647338656567367
66440,Blieskastel,66440,49.22933318731884,7.24459174713768
32825,Blomberg,32825,51.94699723747677,9.06700298808993
78176,Blumberg,78176,47.83905805432526,8.544462017093426
86399,Bobingen,86399,48.27094480810526,10.812567648694737
"46395, 46397, 46399",Bocholt,46395,51.82597342943782,6.601834772386879
44787–44894,Bochum,44787,51.48190331970588,7.216740984044118
31167,Bockenem,31167,52.00358443037323,10.114700822007721
37619,Bodenwerder,37619,51.97129301546115,9.511489828166857
94327,Bogen,94327,48.91175908602041,12.694570014693877
19258,Boizenburg/Elbe,19258,53.39643804327654,10.756416459864505
"53111–53129, 53173–53179, 53225, 53227, 53229Vorlage:Infobox Gemeinde in Deutschland/Wartung/PLZ enthält Text Vorlage:Infobox Verwaltungseinheit in Deutschland/Wartung/PLZ falsch",Bonn,53111,50.73894437583355,7.097336136805376
79848,Bonndorf im Schwarzwald,79848,47.81760267065218,8.32646193152174
73441,Bopfingen,73441,48.86063804539061,10.35164228384828
56154,Boppard,56154,50.20456334647705,7.592025701874596
34434,Borgentreich,34434,51.57483774492661,9.253012019495852
33829,Borgholzhausen,33829,52.096267841405705,8.288532645581071
46325,Borken,46325,51.85746394507463,6.84830203847834
34582,Borken (Hessen),34582,51.052587266155086,9.285678587802908
26757,Borkum,26757,53.58644479029126,6.674215038531554
04552,Borna,04552,51.11898058285714,12.500477791471216
53332,Bornheim,53332,50.77251629378086,6.969070905646604
46236–46244,Bottrop,46236,51.52411691249722,6.9263598578912315
97944,Boxberg,97944,49.4897609782484,9.643588910681741
78199,Bräunlingen,78199,47.92441329427746,8.434640507398845
74336,Brackenheim,74336,49.07847831277288,9.071618735044044
26919,Brake (Unterweser),26919,53.32663807178363,8.472989111988305
33034,Brakel,33034,51.71127576828092,9.181751743874203
49565,Bramsche,49565,52.41138172568602,7.980541104032108
09618,Brand-Erbisdorf,09618,50.837350288878476,13.311120517619493
14770–14776,Brandenburg an der Havel,14770,52.412556608635334,12.533031968233296
"04821,04824 (Beucha)Vorlage:Infobox Gemeinde in Deutschland/Wartung/PLZ enthält Text",Brandis,04821,51.32357677389937,12.624136158490565
56338,Braubach,56338,50.278118573164555,7.647915194556962
35619,Braunfels,35619,50.50961856893667,8.392964096511351
"38700, 37444Vorlage:Infobox Gemeinde in Deutschland/Wartung/PLZ enthält Text",Braunlage,38700,51.7102936154943,10.622638337309887
"06242, 06259Vorlage:Infobox Gemeinde in Deutschland/Wartung/PLZ enthält Text",Braunsbedra,06242,51.28068470793434,11.889362254400366
38100–38126,Braunschweig,38100,52.263993089511445,10.522694896241886
58339,Breckerfeld,58339,51.26335404144676,7.46493414613474
25821,Bredstedt,25821,54.604325210247744,8.9725878875
79206,Breisach am Rhein,79206,48.01879067976308,7.610346534649556
28195–28779,Bremen,28195,53.07895809561559,8.806178431178033
27568–27580,Bremerhaven,27568,53.553774090379015,8.576272992176872
27432,Bremervörde,27432,53.48529501472508,9.117765155670103
75015,Bretten,75015,49.041665500650446,8.703699876041917
64747,Breuberg,64747,49.82368925982553,9.032605037511479
59929,Brilon,59929,51.400431446792496,8.592222821885079
98596,Brotterode-Trusetal,98596,50.819510756010686,10.437932665538735
63486,Bruchköbel,63486,50.187914829636654,8.924168139940347
31675,Bückeburg,31675,52.269825156179955,9.041650845056031
24782,Büdelsdorf,24782,54.3201201120506,9.68024800818908
63654,Büdingen,63654,50.289673464861025,9.090490517545799
77815,Bühl,77815,48.697712453940476,8.135244144884405
32257,Bünde,32257,52.20012963895441,8.573861994065712
33142,Büren,33142,51.562810767902796,8.571996933979491
07616,Bürgel,07616,50.94446181564417,11.765142930122698
68642,Bürstadt,68642,49.65260636892449,8.452834354828376
18246,Bützow,18246,53.857869627328505,11.94530568552705
14822,Brück,14822,52.21812025246146,12.823556774390852
19412,Brüel,19412,53.72366931571995,11.688451707397622
50321,Brühl,50321,50.82492930296914,6.895549455812701
17326,Brüssow,17326,53.3970743125,14.149901994852943
76646,Bruchsal,76646,49.10449653770192,8.591059487368081
25541,Brunsbüttel,25541,53.901268633012045,9.13082981316539
74722,Buchen (Odenwald),74722,49.5134669494958,9.326062432336133
21244,Buchholz in der Nordheide,21244,53.322197499337975,9.862871662230841
86807,Buchloe,86807,48.032685094843465,10.725573403367534
15377,Buckow (Märkische Schweiz),15377,52.55789759800885,14.064485669247787
39288,Burg,39288,52.27510096681205,11.851332705506339
17094,Burg Stargard,17094,53.492376329336736,13.302492458367347
89331,Burgau,89331,48.43300975827338,10.401669815107914
91593,Burgbernheim,91593,49.45982917130434,10.318335551304347
31303,Burgdorf,31303,52.4612453993568,10.008582525154953
84489,Burghausen,84489,48.16571073253629,12.825287779248505
96224,Burgkunstadt,96224,50.14194609928698,11.253130358110518
93133,Burglengenfeld,93133,49.20696406072019,12.03708415811034
09217,Burgstädt,09217,50.91660910206746,12.811135159666303
30938,Burgwedel,30938,52.51507692131851,9.889803374084366
72393,Burladingen,72393,48.31015739336922,9.11454799214209
51399,Burscheid,51399,51.09040667339587,7.122308218611632
35510,Butzbach,35510,50.4272630168252,8.657139113180975
21614,Buxtehude,21614,53.46833143854754,9.682445315944001
03205,Calau,03205,51.73522086060236,13.933144247415548
39240,Calbe (Saale),39240,51.903317435888496,11.83801220522648
75365,Calw,75365,48.71173016171191,8.740246266043615
"44575, 44577, 44579, 44581",Castrop-Rauxel,44575,51.549874010757826,7.31063274764523
29221–29229,Celle,29221,52.619072747034295,10.080786550880445
93413,Cham,93413,49.22174312990291,12.66536963631068
"09111–09131, 09224, 09228, 09247Vorlage:Infobox Gemeinde in Deutschland/Wartung/PLZ enthält Text",Chemnitz,09111,50.835176247597936,12.92390192195122
"38678, 38707, 38709, 38667",Clausthal-Zellerfeld,38678,51.806683964129775,10.337598586234082
99718,Clingen,99718,51.260429630033,10.94922129009901
49661,Cloppenburg,49661,52.844357776505014,8.041888796647823
96450,Coburg,96450,50.261315420499216,10.963898739126364
56812,Cochem,56812,50.1432099844718,7.162293659888801
48653,Coesfeld,48653,51.93331471254781,7.167014180301015
04680,Colditz,04680,51.132887777229186,12.80926086853353
"06868, 06869",Coswig (Anhalt),06868,51.97591015325325,12.354712016416418
01640,Coswig,01640,51.13288348549835,13.574089004959848
03042–03055,Cottbus,03042,51.755944366744366,14.362808099494949
"74564, 74597",Crailsheim,74564,49.131331960270266,10.065922076332047
"97993, 97990",Creglingen,97993,49.45919858510029,10.065842752722064
95473,Creußen,95473,49.84806996766954,11.613178025023878
08451,Crimmitschau,08451,50.81568867690248,12.377157734378585
19089,Crivitz,19089,53.57486334782849,11.683343104868603
"27472, 27474, 27476, 27478",Cuxhaven,27472,53.85994083225008,8.70558235694101
04720,Döbeln,04720,51.126165108885566,13.12797543179018
03159,Döbern,03159,51.625232370437956,14.607837884462983
57567,Daaden,57567,50.740042001086955,7.9700775
85221,Dachau,85221,48.25949648620312,11.44445104812483
04774,Dahlen,04774,51.37622342095875,12.985588097324415
15936,Dahme/Mark,15936,51.86906766463105,13.422313639694657
66994,Dahn,66994,49.151609660895524,7.781329434850746
49401,Damme,49401,52.51730460642616,8.191610353889514
29451,Dannenberg (Elbe),29451,53.09242618989531,11.095157124943105
17159,Dargun,17159,53.89831749290172,12.853730564196567
64283–64297,Darmstadt,64283,49.87015185033193,8.653070497404949
37586,Dassel,37586,51.79032775564143,9.72227748763524
23942,Dassow,23942,53.93866773279797,10.984333377557059
45711,Datteln,45711,51.64940327977726,7.330458539917937
54550,Daun,54550,50.205575937944666,6.820696195652173
"94469,94526 (Lehmberg)Vorlage:Infobox Gemeinde in Deutschland/Wartung/PLZ enthält Text",Deggendorf,94469,48.83415352844694,12.969141843745158
67146,Deidesheim,67146,49.408289926900586,8.186186085380118
33129,Delbrück,33129,51.76532314671686,8.552078867810874
04509,Delitzsch,04509,51.514814081345506,12.352042006628299
"27749, 27751, 27753, 27755",Delmenhorst,27749,53.05176434152543,8.637183710275423
17109,Demmin,17109,53.90539686353147,13.034462464825173
"06842–06849,06861, 06862Vorlage:Infobox Gemeinde in Deutschland/Wartung/PLZ enthält Text",Dessau-Roßlau,06842,51.82039471843238,12.250099156761411
"32756, 32758, 32760",Detmold,32756,51.938944644902165,8.874906512373107
64807,Dieburg,64807,49.89836506364223,8.839550992152226
34474,Diemelstadt,34474,51.48352349108312,8.991915592443325
49356,Diepholz,49356,52.61020494774965,8.371642429869903
56269,Dierdorf,56269,50.5490544647482,7.656431574100719
89165,Dietenheim,89165,48.238096121683675,10.058598354464285
92345,Dietfurt an der Altmühl,92345,49.01445001671554,11.579898526099708
63128,Dietzenbach,63128,50.01564865228759,8.779786711816305
65582,Diez,65582,50.37229918418803,8.020193722649573
35683–35690,Dillenburg,35683,50.734439875526746,8.286666528282009
66763,Dillingen/Saar,66763,49.36116559813161,6.7311077311342595
89407,Dillingen an der Donau,89407,48.57941850647526,10.497807798289553
37351,Dingelstädt,37351,51.26197385337915,10.343790745475372
84130,Dingolfing,84130,48.6374621110271,12.491716857781977
91550,Dinkelsbühl,91550,49.067426443037654,10.321412744099066
49413,Dinklage,49413,52.661455586322866,8.120608535388639
"46535, 46537, 46539",Dinslaken,46535,51.55874047383661,6.7308491692864525
01744,Dippoldiswalde,01744,50.881481413244146,13.662336170301002
49201,Dissen am Teutoburger Wald,49201,52.11715517862767,8.202785460404948
71254,Ditzingen,71254,48.83418605576828,9.050684837642963
03253,Doberlug-Kirchhain,03253,51.62458832706475,13.525097173118278
19303,Dömitz,19303,53.16735580592072,11.241569869192173
48249,Dülmen,48249,51.839585721593735,7.292198751832089
"52349, 52351, 52353, 52355",Düren,52349,50.79775621123875,6.482515142222912
40210–40629,Düsseldorf,40210,51.22149332860548,6.787910607508939
01809,Dohna,01809,50.96044879056065,13.854581950703365
04880,Dommitzsch,04880,51.636304302915455,12.847767256341108
78166,Donaueschingen,78166,47.95544481334394,8.497739338776954
86609,Donauwörth,86609,48.72085633878765,10.770764901747862
73072,Donzdorf,73072,48.693465343708205,9.80931740911854
"84405, 84428",Dorfen,84405,48.275868308063664,12.158548870848806
41539–41542,Dormagen,41539,51.098406002480516,6.836184973186866
"07774, 07778Vorlage:Infobox Gemeinde in Deutschland/Wartung/PLZ enthält Text",Dornburg-Camburg,07774,51.01974271085759,11.691327757671125
72175,Dornhan,72175,48.35046600057923,8.52575266797683
72280,Dornstetten,72280,48.47348568746531,8.496594249583719
"46282, 46284, 46286",Dorsten,46282,51.654144837586536,6.963946699716804
44135–44388,Dortmund,44135,51.513756628776186,7.475295588313121
03116,Drebkau,03116,51.66629233803279,14.228235371522247
63303,Dreieich,63303,50.01218317310743,8.70198707185086
48317,Drensteinfurt,48317,51.79867246300861,7.732717206181533
"01067–01328, 01465",Dresden,01067,51.05327070418173,13.72691083009809
57489,Drolshagen,57489,51.03205132765468,7.7695158170647485
37115,Duderstadt,37115,51.50967669705373,10.260684719815137
47051–47279,Duisburg,47051,51.433012285991296,6.766112936565096
99713,Ebeleben,99713,51.28110780598007,10.70379751578073
"69412, 64754, 69429, 69434Vorlage:Infobox Gemeinde in Deutschland/Wartung/PLZ enthält Text",Eberbach,69412,49.46203859332652,8.98585692787011
91320,Ebermannstadt,91320,49.77981274505882,11.189102754588236
96106,Ebern,96106,50.09657945941043,10.793179191232047
02730 (Ebersbach) 02727 (Neugersdorf)Vorlage:Infobox Gemeinde in Deutschland/Wartung/PLZ enthält Text,Ebersbach-Neugersdorf,02730,51.00343336009302,14.591821963767442
73061,Ebersbach an der Fils,73061,48.71095439617371,9.52191535286385
85560,Ebersberg,85560,48.0787796144541,11.965535847735731
"16225, 16227",Eberswalde,16225,52.83403038641629,13.81407392969463
06648,Eckartsberga,06648,51.123078572649575,11.572265709401709
24340,Eckernförde,24340,54.46852251200234,9.835719200204919
67480,Edenkoben,67480,49.28153398511548,8.126371202737381
39435,Egeln,39435,51.946166666459625,11.456945376397515
84307,Eggenfelden,84307,48.407923821035055,12.764288423706176
"17367,17375 (Hoppenwalde)Vorlage:Infobox Gemeinde in Deutschland/Wartung/PLZ enthält Text",Eggesin,17367,53.67740422692009,14.084754649185417
89584,Ehingen (Donau),89584,48.28553816268484,9.71674614975355
09427,Ehrenfriedersdorf,09427,50.64761454198036,12.968003678396071
97246,Eibelstadt,97246,49.72528929541985,10.001642447582698
08309,Eibenstock,08309,50.488482204722494,12.615591031548199
85072,Eichstätt,85072,48.89112995834156,11.192355800197433
04838,Eilenburg,04838,51.474037101294066,12.631214853264911
37574,Einbeck,37574,51.83017282497941,9.902334140485996
99817,Eisenach,99817,50.98610369395719,10.317412285766013
67304,Eisenberg (Pfalz),67304,49.56175950793157,8.059478574774495
07607,Eisenberg,07607,50.96734506966214,11.890216540543364
15890,Eisenhüttenstadt,15890,52.1520536745259,14.63138417738466
98673,Eisfeld,98673,50.437899794062965,10.909110432653673
73054,Eislingen/Fils,73054,48.698310163995835,9.707933998210198
91792,Ellingen,91792,49.06531402958904,10.969001091780822
99755,Ellrich,99755,51.568002127168945,10.628044391171994
73479,Ellwangen (Jagst),73479,48.9639462250355,10.150795366160182
25335–25337,Elmshorn,25335,53.76267057149636,9.653225547381801
50189,Elsdorf,50189,50.93671086875817,6.570942849571532
26931,Elsfleth,26931,53.234978907894735,8.409349991184211
07985,Elsterberg,07985,50.60877204691754,12.171993400480384
04910,Elsterwerda,04910,51.467772989570555,13.515396278274991
01920,Elstra,01920,51.25355480397604,14.134767809014162
09481,Elterlein,09481,50.56170988039216,12.894756172156862
97483,Eltmann,97483,49.96461454439883,10.668702973020528
65343–65347,Eltville am Rhein,65343,50.02962316194125,8.118787017049808
79215,Elzach,79215,48.18184741442186,8.080206453748412
31008,Elze,31008,52.12206766039293,9.731996630058939
"26721, 26723, 26725",Emden,26721,53.37841065900021,7.2046552774940995
56281,Emmelshausen,56281,50.154528703846154,7.55108793173077
79312,Emmendingen,79312,48.11546455856709,7.858627547882794
46446,Emmerich am Rhein,46446,51.84607789359792,6.238398872227762
48282,Emsdetten,48282,52.17047990177729,7.528541834838593
79346,Endingen am Kaiserstuhl,79346,48.14174821291139,7.693772902616034
78234,Engen,78234,47.85183141895223,8.769186944375964
32130,Enger,32130,52.140761956613986,8.552634533918642
58256,Ennepetal,58256,51.29575285648521,7.361989539301775
59320,Ennigerloh,59320,51.84699653803247,8.0230031194181
69214,Eppelheim,69214,49.40098106197746,8.62894871828426
75031,Eppingen,75031,49.13447581637752,8.911752716620402
65817,Eppstein,65817,50.14797026502242,8.369006936154708
89155,Erbach,89155,48.32032040885842,9.875256553440549
"64711,64743 (Marbach)Vorlage:Infobox Gemeinde in Deutschland/Wartung/PLZ enthält Text",Erbach (Odenwald),64711,49.65164158772727,8.998895521969697
"92681, 92690",Erbendorf,92681,49.850138125,12.048122518859648
85435,Erding,85435,48.30481069767719,11.906067914055985
50374,Erftstadt,50374,50.803840084420784,6.782821930370553
99084–99099,Erfurt,99084,50.9766747376201,11.027866543335797
41812,Erkelenz,41812,51.07639275220009,6.3075366600211735
15537,Erkner,15537,52.412623554673615,13.820421075589032
40699,Erkrath,40699,51.2115526187575,6.9383269259635325
"91052, 91054, 91056, 91058",Erlangen,91052,49.588898348737004,11.014489880471237
63906,Erlenbach am Main,63906,49.80196693668442,9.184387341278295
"63526,63543 (Bei den Tongruben)Vorlage:Infobox Gemeinde in Deutschland/Wartung/PLZ enthält Text",Erlensee,63526,50.1651059224188,8.984837421864272
59597,Erwitte,59597,51.61733225391696,8.32498798323541
65760,Eschborn,65760,50.15062093769915,8.55969371164908
92676,Eschenbach in der Oberpfalz,92676,49.751577597430405,11.828977087152033
37632,Eschershausen,37632,51.91252859206195,9.690168516360115
37269,Eschwege,37269,51.186907919103255,10.040468126176192
52249,Eschweiler,52249,50.819837352120466,6.270929419077664
26427,Esens,26427,53.65232198346766,7.630283041820954
32339,Espelkamp,32339,52.371410671681986,8.62278620745824
45127–45359,Essen,45127,51.45704444303308,7.010964470971148
06295,Eisleben,06295,51.5185557195923,11.548276332324868
73728–73734,Esslingen am Neckar,73728,48.74066263324176,9.311014162534342
77955,Ettenheim,77955,48.254611006659346,7.826222054299305
"76275, 76359",Ettlingen,76275,48.9320460324501,8.395666341328285
"53879, 53881",Euskirchen,53879,50.65912572370957,6.786266867991005
23701,Eutin,23701,54.119752856377474,10.626947735829528
49584,Fürstenau,49584,52.51561540273296,7.6809885782351
16798,Fürstenberg/Havel,16798,53.169768165189225,13.175450447698601
82256,Fürstenfeldbruck,82256,48.17667966293017,11.244250257989433
15517,Fürstenwalde/Spree,15517,52.35871910968619,14.065043224311772
90762–90768,Fürth,90762,49.47444695848236,10.99111753939101
87629,Füssen,87629,47.57640194948405,10.685202666463415
04895,Falkenberg/Elster,04895,51.570609650891356,13.236529168516649
14612,Falkensee,14612,52.56495496524209,13.083145849005952
"06333 (Endorf, Neuplatendorf),06463 (Ermsleben, Meisdorf, Reinstedt),06543 (Pansfelde, Wieserode)Vorlage:Infobox Gemeinde in Deutschland/Wartung/PLZ enthält Text",Falkenstein/Harz,06333,51.64992295087137,11.496036896818811
"08223,08239 (Oberlauterbach, Trieb, Schönau)Vorlage:Infobox Gemeinde in Deutschland/Wartung/PLZ enthält Text",Falkenstein/Vogtl.,08223,50.46351498219927,12.350224014945322
23769,Fehmarn,23769,54.448126871117125,11.168091783806947
"70734, 70736",Fellbach,70734,48.80725307667065,9.275886415572792
34587,Felsberg,34587,51.15880344184,9.428490624959998
91555,Feuchtwangen,91555,49.167077309117644,10.33345152514706
70794,Filderstadt,70794,48.663322800708,9.219431762400772
03238,Finsterwalde,03238,51.61206414372212,13.70656909739154
09557,Flöha,09557,50.85444186284977,13.08335209397331
65439,Flörsheim am Main,65439,50.02304145421574,8.42346655726304
97650,Fladungen,97650,50.523452114717344,10.144923837816764
24937–24944,Flensburg,24937,54.7836615858632,9.430185514429967
61197,Florstadt,61197,50.321251433941995,8.890531920981024
91301,Forchheim,91301,49.71574516812439,11.067391868707482
"74670, 74249, 74632, 74639",Forchtenberg,74670,49.28468947789825,9.537729745079233
03149,Forst (Lausitz),03149,51.73116556297252,14.628064269849702
58730,Fröndenberg/Ruhr,58730,51.483751940116655,7.755546634624109
09669,Frankenberg/Sa.,09669,50.91190447381091,13.051037763486079
35066,Frankenberg (Eder),35066,51.06749880185239,8.78958509852388
67227,Frankenthal (Pfalz),67227,49.53108213279172,8.354219996835804
"15230, 15232, 15234, 15236",Frankfurt (Oder),15230,52.34333875968137,14.546896425919119
"60306–60599, 65929–65936",Frankfurt am Main,60306,50.11603336666667,8.670190866666667
18461,Franzburg,18461,54.188494853902434,12.879930378455285
09623,Frauenstein,09623,50.77005130534311,13.527952170403353
50226,Frechen,50226,50.91785973261987,6.793786496954353
"09599, 09596",Freiberg,09599,50.912734121591185,13.33919644875153
71691,Freiberg am Neckar,71691,48.93331523913491,9.192045981290764
79098–79117,Freiburg im Breisgau,79098,47.99475926197647,7.849054587952942
83395,Freilassing,83395,47.83875914342998,12.973816408636644
"67251, 67098Vorlage:Infobox Gemeinde in Deutschland/Wartung/PLZ enthält Text",Freinsheim,67251,49.50610902351515,8.21082758139394
"85354, 85356",Freising,85354,48.39938388280282,11.732551660756249
01705,Freital,01705,51.00539776003231,13.64892744948656
49832,Freren,49832,52.471722533687405,7.521935710622154
97896,Freudenberg,97896,49.74987818796296,9.33301350925926
57258,Freudenberg,57258,50.89708324382339,7.89669210805358
72250,Freudenstadt,72250,48.46683206732365,8.424477124654219
06632,Freyburg (Unstrut),06632,51.228616081916336,11.762312322447144
92342,Freystadt,92342,49.19857503882124,11.336727121188504
94078,Freyung,94078,48.813126471040725,13.543624977737558
78567,Fridingen an der Donau,78567,48.0222369159601,8.926946711221944
86316,Friedberg,86316,48.36072621115098,10.986982347594363
61169,Friedberg (Hessen),61169,50.33253183052338,8.76140039987439
17098,Friedland,17098,53.65828505214612,13.546518533333334
15848,Friedland,15848,52.16398634115942,14.20858780425121
99894,Friedrichroda,99894,50.85190984332493,10.58051036095718
61381,Friedrichsdorf,61381,50.26019147784307,8.650462221880401
"88045, 88046, 88048",Friedrichshafen,88045,47.661621476936396,9.466904334521159
25840,Friedrichstadt,25840,54.37887605839329,9.085124861031174
66299,Friedrichsthal,66299,49.32700541302051,7.093449040646364
14662,Friesack,14662,52.72400982818836,12.592179638587313
26169,Friesoythe,26169,53.02403663036509,7.85854113960374
34560,Fritzlar,34560,51.13932103495969,9.272777179168434
04654,Frohburg,04654,51.05861608541077,12.587015269081343
"36037, 36039, 36041, 36043",Fulda,36037,50.55408530110969,9.680048975501494
93437,Furth im Wald,93437,49.30802107324343,12.834764005535842
78120,Furtwangen im Schwarzwald,78120,48.05142535582792,8.205581019009506
19205,Gadebusch,19205,53.705266854458166,11.12662878223594
76571,Gaggenau,76571,48.80605064894176,8.327456838082721
74405,Gaildorf,74405,48.99641476095318,9.771725124331104
72501,Gammertingen,72501,48.25136442060064,9.224296735669126
"30823, 30826, 30827",Garbsen,30823,52.42228805670645,9.601083024152745
85748,Garching bei München,85748,48.24913889527508,11.645759822556634
"39638, 39649",Gardelegen,39638,52.51113792574228,11.396956323574821
25836,Garding,25836,54.331153280778025,8.781377924313501
16307,Gartz (Oder),16307,53.22066835892157,14.380548527450982
18574,Garz/Rügen,18574,54.29713656112985,13.31703163381113
55435,Gau-Algesheim,55435,49.956330148379735,8.015804840940211
99189,Gebesee,99189,51.0750511920544,10.943177040801718
63688,Gedern,63688,50.41447936542751,9.199398222251727
21502,Geesthacht,21502,53.43957159102773,10.382289759094617
"27607, 27624",Geestland,27607,53.62594808180769,8.618365034423077
07926,Gefell,07926,50.42930004464286,11.858241114285715
"95482, 95236",Gefrees,95482,50.09317651861702,11.752335012234042
30989,Gehrden,30989,52.31806644475138,9.600786254663634
52511,Geilenkirchen,52511,50.97047601484005,6.124710792590964
36419,Geisa,36419,50.712966099913004,9.956701770117443
94333,Geiselhöring,94333,48.826392958585856,12.399367876262627
85290,Geisenfeld,85290,48.68902290436782,11.61139913072797
"65366,65385 (Am Rüdesheimer Hafen)Vorlage:Infobox Gemeinde in Deutschland/Wartung/PLZ enthält Text",Geisenheim,65366,49.99650909514683,7.9651388544049455
78187,Geisingen,78187,47.90776412847082,8.651647560613682
72351,Geislingen,72351,48.29316958342542,8.798622442311233
73312,Geislingen an der Steige,73312,48.61932867962749,9.830489004153618
04643,Geithain,04643,51.04547286138614,12.691415255445545
47608,Geldern,47608,51.51762951041523,6.313378352670572
"63571, 63589",Gelnhausen,63571,50.19755123396149,9.178822614488597
45879–45899,Gelsenkirchen,45879,51.50718666830879,7.097928838902996
04639,Gößnitz,04639,50.87863730534394,12.426911077316657
"73033, 73035, 73037, 73116",Göppingen,73033,48.70805489109998,9.65277169491768
02826–02828,Görlitz,02826,51.15003127591207,14.981175466604304
74363,Güglingen,74363,49.06799872962963,9.012196993865741
89312,Günzburg,89312,48.452105509420846,10.278864780694981
39439,Güsten,39439,51.79340046,11.609966845
18273,Güstrow,18273,53.793117355050185,12.181327958384589
"33330–33335, 33311",Gütersloh,33330,51.91617088991143,8.37393245008257
17506,Gützkow,17506,53.936428277157894,13.413242206631578
35285,Gemünden (Wohra),35285,50.97735630661225,8.96621471142857
97737,Gemünden am Main,97737,50.05391680524214,9.685040654867699
77723,Gengenbach,77723,48.403458936579575,8.016076398970705
"39291 (Ringelsdorf, Schopsdorf),39307 (Genthin, Gladau, Mützel, Paplitz, Parchen, Tucheim)Vorlage:Infobox Gemeinde in Deutschland/Wartung/PLZ enthält Text",Genthin,39291,52.197846530846824,11.891732291332502
49124,Georgsmarienhütte,49124,52.206209062218115,8.051064611349354
07545–07557,Gera,07545,50.87836032712604,12.083990148320977
"74582, 74585",Gerabronn,74582,49.24729474162473,9.918309397843279
06347,Gerbstedt,06347,51.61898362043446,11.627291858431517
82538,Geretsried,82538,47.87019956865056,11.467583204065999
09326,Geringswalde,09326,51.07431297648166,12.91327809830668
70839,Gerlingen,70839,48.79816109556199,9.064926847081525
82110,Germering,82110,48.12819822587809,11.368058158447024
76726,Germersheim,76726,49.208684394752446,8.363922743699971
76593,Gernsbach,76593,48.75910251262752,8.339089631816929
64579,Gernsheim,64579,49.75289847288439,8.49325165408224
54568,Gerolstein,54568,50.22251178099688,6.648250715109034
97447,Gerolzhofen,97447,49.89999482732342,10.346309891635688
36129,Gersfeld (Rhön),36129,50.450880835087716,9.888753280350878
86368,Gersthofen,86368,48.42413506509763,10.862953729916319
48712,Gescher,48712,51.946540948707344,7.008329635346432
59590,Geseke,59590,51.64131554422647,8.489388839027113
58285,Gevelsberg,58285,51.32787270781032,7.339137403486751
09468,Geyer,09468,50.62144440528121,12.929040725651577
"35390, 35392, 35394, 35396, 35398",Gießen,35390,50.58600535457438,8.67540320172368
"89537, 89522",Giengen an der Brenz,89537,48.61051831016462,10.235366001175855
38518,Gifhorn,38518,52.48424022528022,10.538967037996061
65462,Ginsheim-Gustavsburg,65462,49.97967681538933,8.337267915389333
24960,Glücksburg (Ostsee),24960,54.82958932715817,9.551856824133585
25348,Glückstadt,25348,53.79251646380763,9.42868479687655
"45964, 45966, 45968",Gladbeck,45964,51.57157537555446,6.9850332912764905
35075,Gladenbach,35075,50.76776844287734,8.581148208872392
01768,Glashütte,01768,50.87061353321428,13.76671907654762
08371,Glauchau,08371,50.81868847763698,12.543110808602535
21509,Glinde,21509,53.54391988165939,10.215150735433562
17179,Gnoien,17179,53.968796659284735,12.702403948968362
47574,Goch,47574,51.68806539902221,6.14591735213593
15938,Golßen,15938,51.95826910629454,13.60795191567696
19399,Goldberg,19399,53.587648089560645,12.080208092827638
95497,Goldkronach,95497,50.006100343120806,11.686597939848994
"39175 (Menz, Wahlitz),39245 (Dannigkow, Gommern),39264 (Dornburg, Lübs, Prödel),39279 (Ladeburg, Leitzkau),39291 (Karith, Nedlitz, Vehlitz)Vorlage:Infobox Gemeinde in Deutschland/Wartung/PLZ enthält Text",Gommern,39175,52.15101257201892,11.744704899775952
"38640, 38642, 38644, 38690",Goslar,38640,51.907996650335804,10.427855988900673
99867,Gotha,99867,50.942955021411485,10.710004764513556
91322,Gräfenberg,91322,49.663625239554314,11.247390511142061
"06772, 06773",Gräfenhainichen,06772,51.70964872519583,12.41423900737598
98743,Gräfenthal,98743,50.526717926428574,11.293238560714284
01609,Gröditz,01609,51.39870145042912,13.43627847804084
39397,Gröningen,39397,51.95408167097868,11.173557989728682
35305,Grünberg,35305,50.59487516156807,8.957223334947326
08344,Grünhain-Beierfeld,08344,50.56921823369631,12.799939890078644
97947,Grünsfeld,97947,49.609784398249126,9.74504851575788
67269,Grünstadt,67269,49.566842409800365,8.167535080641258
19300,Grabow,19300,53.26819877208916,11.594111921889555
"94481, 94568",Grafenau,94481,48.83319705785908,13.397684573712738
92655,Grafenwöhr,92655,49.711400039361706,11.92110279361702
85567,Grafing bei München,85567,48.03888914067692,11.954447714338462
16775,Gransee,16775,52.934703972031386,13.163511907271142
36323,Grebenau,36323,50.73446011641509,9.450624979433963
34393,Grebenstein,34393,51.44388755961995,9.412224207185274
91171,Greding,91171,49.048991107197544,11.343004506814703
"17489, 17491, 17493",Greifswald,17489,54.08947310835215,13.379820167963187
07973,Greiz,07973,50.64928941207442,12.194765200930233
99718,Greußen,99718,51.260429630033,10.94922129009901
48268,Greven,48268,52.102589116253334,7.599677039837961
"41515, 41516, 41517",Grevenbroich,41515,51.08777297918577,6.590438600138946
23936,Grevesmühlen,23936,53.83902799271121,11.19359918420762
64347,Griesheim,64347,49.86024000215856,8.565743000678793
04668,Grimma,04668,51.22971831077691,12.735619850511446
18507,Grimmen,18507,54.10959170793525,13.038267882195026
"64401,64395 (Hippelsbach)Vorlage:Infobox Gemeinde in Deutschland/Wartung/PLZ enthält Text",Groß-Bieberau,64401,49.796835436547084,8.819295271300449
64823,Groß-Umstadt,64823,49.87088770670573,8.935049034342448
37247,Großalmerode,37247,51.24903738851436,9.79323903841032
71723,Großbottwar,71723,49.00699314553271,9.2910384637757
98701,Großbreitenbach,98701,50.598478553678476,11.005521355040871
01558,Großenhain,01558,51.289506872323756,13.532450044151437
01983,Großräschen,01983,51.59079958046494,13.999021368466442
01900,Großröhrsdorf,01900,51.14476576595389,14.035848166221184
09603,Großschirma,09603,50.995166401496135,13.29180283692085
04539,Groitzsch,04539,51.144666813336,12.28481490909091
31028,Gronau (Leine),31028,52.08139393560342,9.790591147228382
48599,Gronau (Westf.),48599,52.202885656574686,7.03463287191346
03172,Guben,03172,51.953403544600235,14.655072740711066
34281,Gudensberg,34281,51.17626933701394,9.371433688334555
"51643, 51645, 51647",Gummersbach,51643,51.024174590759614,7.555291500115794
89423,Gundelfingen an der Donau,89423,48.546710039488325,10.369298282035595
74831,Gundelsheim,74831,49.28474377547654,9.17707575846774
91710,Gunzenhausen,91710,49.11508428875049,10.75257363285325
42781,Haan,42781,51.197349302381845,7.007252970756952
57627,Hachenburg,57627,50.661014295045796,7.817939351582014
65589,Hadamar,65589,50.4443765948867,8.042778291051714
97437,Haßfurt,97437,50.03952074358974,10.515636140429338
"58089–58099, 58119, 58135",Hagen,58089,51.36754446788063,7.445669385230146
76767,Hagenbach,76767,49.021090438073394,8.249233645642201
19230,Hagenow,19230,53.4340038955907,11.22170623871628
35708,Haiger,35708,50.75865348945214,8.204779315050379
72401,Haigerloch,72401,48.365151495617816,8.800715001724138
09661,Hainichen,09661,50.98430185468978,13.123143643242114
72221,Haiterbach,72221,48.53114787504735,8.647764004119319
"38820, 38822, 38895Vorlage:Infobox Gemeinde in Deutschland/Wartung/PLZ enthält Text",Halberstadt,38820,51.89512974895657,11.049602085843205
"39340,39343 (Hundisburg, Süplingen),39345 (Gut Detzel, Hütten, Satuelle, Schloss Detzel, Uthmöden, Wedringen)Vorlage:Infobox Gemeinde in Deutschland/Wartung/PLZ enthält Text",Haldensleben,39340,52.28362599853497,11.407892875732514
06108–06132,Halle (Saale),06108,51.485882659067535,11.968845822283168
33790,Halle (Westf.),33790,52.05145479944247,8.354297652687006
59969,Hallenberg,59969,51.12334634011696,8.626192115087719
96103,Hallstadt,96103,49.927976833178434,10.874158518076209
45721,Haltern am See,45721,51.746268143579556,7.1882808619526255
58553,Halver,58553,51.190924209391454,7.507305654495683
"20095–21149,22041–22769,27499",Hamburg,20095,53.55097772736842,9.999655113082706
"31785, 31787, 31789",Hameln,31785,52.10587178173077,9.363777764957266
59063–59077,Hamm,59063,51.66970195152151,7.831740618100734
97762,Hammelburg,97762,50.12272882772152,9.868095589620253
46499,Hamminkeln,46499,51.74597826965669,6.594023930655415
"63450, 63452, 63454, 63456, 63457",Hanau,63450,50.13068222360294,8.920325207977942
34346,Hann. Münden,34346,51.421656350179944,9.661207749717224
"30159–30179,30419–30669Vorlage:Infobox Gemeinde in Deutschland/Wartung/PLZ enthält Text",Hannover,30159,52.37427044325902,9.737869161995754
86655,Harburg (Schwaben),86655,48.78233812702326,10.691030938604651
37181,Hardegsen,37181,51.642085315599175,9.82897250960744
49733,Haren (Ems),49733,52.789676919953266,7.229742518691589
33428,Harsewinkel,33428,51.963423330132976,8.229533172154255
08118,Hartenstein,08118,50.669272006314245,12.671619264684288
04746,Hartha,04746,51.101316776340695,12.9694999079653
06493,Harzgerode,06493,51.68280813144387,11.173875504692175
49740,Haselünne,49740,52.67716812417178,7.476677750736196
77716,Haslach im Kinzigtal,77716,48.27702382772903,8.087879608845208
65795,Hattersheim am Main,65795,50.05724580850195,8.483846181907838
"45525, 45527, 45529",Hattingen,45525,51.39688772293699,7.184881219404166
35116,Hatzfeld (Eder),35116,50.99705315816327,8.5688205580705
77756,Hausach,77756,48.28558680627228,8.169048981397006
94051,Hauzenberg,94051,48.644183063559325,13.617615591525423
39539,Havelberg,39539,52.82479958483146,12.10041690116681
"14778, 14798",Havelsee,14778,52.4438770118123,12.57898034686084
72534,Hayingen,72534,48.28887642661448,9.475241680528375
72379,Hechingen,72379,48.35430651647265,8.966065377483655
39444,Hecklingen,39444,51.87716204918167,11.453250978150573
25746,Heide,25746,54.19643071652883,9.097179719619152
91180,Heideck,91180,49.14041623853821,11.143692177408639
69115–69126,Heidelberg,69115,49.404020793422085,8.682045803641348
"89518, 89520, 89522",Heidenheim an der Brenz,89518,48.68267501068043,10.139458568962633
37308,Heilbad Heiligenstadt,37308,51.36074235704074,10.15082100571837
74072–74081,Heilbronn,74072,49.140136557517806,9.219639196775404
23774,Heiligenhafen,23774,54.37067480804597,10.977189957799672
42579,Heiligenhaus,42579,51.330131631687316,6.967192767877468
91560,Heilsbronn,91560,49.342803430972225,10.796353969548612
52396,Heimbach,52396,50.638078169815095,6.4932154458270865
71296,Heimsheim,71296,48.80691677231467,8.864569987594553
52525,Heinsberg,52525,51.06159806124194,6.091454708625158
79423,Heitersheim,79423,47.875067464880956,7.660885610389611
98663,Heldburg,98663,50.27646402249341,10.695554216952507
95233,Helmbrechts,95233,50.23588156029455,11.702606197967599
"38350, 38372Vorlage:Infobox Gemeinde in Deutschland/Wartung/PLZ enthält Text",Helmstedt,38350,52.232398718457944,11.004027952089825
93155,Hemau,93155,49.048158008381506,11.782031406647398
58675,Hemer,58675,51.37978217886829,7.768717113118074
30966,Hemmingen,30966,52.304428515721064,9.732793001361667
21745,Hemmoor,21745,53.69060060474742,9.148799923037126
69502,Hemsbach,69502,49.59115367035831,8.64751241111111
53773,Hennef (Sieg),53773,50.76677302293888,7.30503142375732
16761,Hennigsdorf,16761,52.63273581341115,13.200108194267186
64646,Heppenheim (Bergstraße),64646,49.64236270573689,8.642044197903067
79336,Herbolzheim,79336,48.21730391903172,7.789081273622705
35745,Herborn,35745,50.68371665236783,8.29708946907181
89542,Herbrechtingen,89542,48.60693077641791,10.164235373233831
36358,Herbstein,36358,50.55548594869177,9.37015349106573
58313,Herdecke,58313,51.41354442965494,7.428804874495749
57562,Herdorf,57562,50.77601359677997,7.942710444364937
"32049, 32051, 32052",Herford,32049,52.12375723365909,8.695997780181086
99765,Heringen/Helme,99765,51.46577201537162,10.88591978733108
36266,Heringen (Werra),36266,50.888159109699,10.012208152341138
54411,Hermeskeil,54411,49.65916344567834,6.943645133041575
07629,Hermsdorf,07629,50.877407294689654,11.868860938551723
"44623–44629,44649–44653Vorlage:Infobox Gemeinde in Deutschland/Wartung/PLZ enthält Text",Herne,44623,51.53785015971787,7.2245407881504695
71083,Herrenberg,71083,48.59546022143082,8.865646635066708
91567,Herrieden,91567,49.229738369603524,10.522983194933921
"02747 (Berthelsdorf, Großhennersdorf, Herrnhut, Rennersdorf, Strahwalde)Vorlage:Infobox Gemeinde in Deutschland/Wartung/PLZ enthält Text",Herrnhut,02747,51.01332211355294,14.756128367623528
91217,Hersbruck,91217,49.508392703252035,11.430012663380758
"45699, 45701",Herten,45699,51.59334641293915,7.145149913694817
04916,Herzberg (Elster),04916,51.68760570161865,13.220458999384915
"37412, 37434",Herzberg am Harz,37412,51.642090323250564,10.334168522573364
91074,Herzogenaurach,91074,49.56886803613054,10.890375844071484
52134,Herzogenrath,52134,50.85774960465392,6.0962451535941895
"31840, 31833",Hessisch Oldendorf,31840,52.14698342147477,9.245280652910738
"72513, 72419, 72501",Hettingen,72513,48.21184535263158,9.244821005263157
06333,Hettstedt,06333,51.64992295087137,11.496036896818811
73540,Heubach,73540,48.79457535030888,9.937404971081081
63150,Heusenstamm,63150,50.05428186159049,8.805388248041044
57271,Hilchenbach,57271,50.98654488980693,8.089296232925058
98646,Hildburghausen,98646,50.41136555333446,10.710720838744075
"40721, 40723, 40724",Hilden,40721,51.17240568667055,6.924050849854481
31134–31141,Hildesheim,31134,52.15014465711628,9.952626718232558
54576,Hillesheim,54576,50.28542521422559,6.6664489287878785
89420,Höchstädt an der Donau,89420,48.61357810437263,10.570337474429659
91315,Höchstadt an der Aisch,91315,49.71313422100657,10.837853194748359
56203,Höhr-Grenzhausen,56203,50.4340297070711,7.668753655100463
48477,Hörstel,48477,52.28418009823689,7.58954506680229
37671,Höxter,37671,51.78362145282547,9.368563473397089
41836,Hückelhoven,41836,51.048931005917666,6.22283402815375
42499,Hückeswagen,42499,51.146585429580924,7.332306389901917
78183,Hüfingen,78183,47.9109811616578,8.496575264140072
36088,Hünfeld,36088,50.66565098432147,9.747933287878787
50354,Hürth,50354,50.881000665771396,6.8723368147891195
91161,Hilpoltstein,91161,49.18172468303595,11.207707190705726
92242,Hirschau,92242,49.54954840019249,11.942332697401348
07927,Hirschberg,07927,50.408055719659735,11.816776511909262
"69434,64757 (Unter-Hainbrunn),69412 (Igelsbach)Vorlage:Infobox Gemeinde in Deutschland/Wartung/PLZ enthält Text",Hirschhorn (Neckar),69434,49.4573610625,8.884906358413462
29456,Hitzacker (Elbe),29456,53.151243212130176,11.029136393786981
65239,Hochheim am Main,65239,50.01781667869794,8.361092375730014
68766,Hockenheim,68766,49.319121882031055,8.548409567599899
"95028, 95030, 95032",Hof,95028,50.31893296065119,11.92385859770318
34369,Hofgeismar,34369,51.496550025917685,9.396025818242492
65719,Hofheim am Taunus,65719,50.08688736465761,8.41314814455805
97461,Hofheim in Unterfranken,97461,50.138959707200925,10.532373980836237
"16540, 16556, 16562",Hohen Neuendorf,16540,52.67178225776592,13.273516049043062
95691,Hohenberg an der Eger,95691,50.1002054533101,12.198352108710802
07958,Hohenleuben,07958,50.708866463557484,12.051983320607375
06679,Hohenmölsen,06679,51.16070189806139,12.078094367689822
09337,Hohenstein-Ernstthal,09337,50.81139861455327,12.694520835945017
01848,Hohnstein,01848,50.97885192116155,14.137203447263017
96142,Hollfeld,96142,49.93933983663204,11.286910148988518
71088,Holzgerlingen,71088,48.641054539909774,9.01653507037594
37603,Holzminden,37603,51.82059944431681,9.465887109794437
34576,Homberg (Efze),34576,51.02932637511811,9.415937532440946
35315,Homberg (Ohm),35315,50.73614816474286,9.001800858457143
"66424, 66421 (Universitätsklinikum des Saarlandes)Vorlage:Infobox Gemeinde in Deutschland/Wartung/PLZ enthält Text",Homburg,66424,49.32353194883157,7.33462832975661
72160,Horb am Neckar,72160,48.44798683717259,8.67379866766838
32805,Horn-Bad Meinberg,32805,51.87686932019194,8.965503695916446
66500,Hornbach,66500,49.18646529334365,7.37293258126935
78132,Hornberg,78132,48.20863471310419,8.235873786680987
48612,Horstmar,48612,52.09136876825843,7.30463323164794
27318,Hoya,27318,52.82685414049733,9.139304685790409
02977,Hoyerswerda,02977,51.43443466883986,14.242492946818986
35410,Hungen,35410,50.47244366523344,8.904552266737008
25813,Husum,25813,54.4767932,9.052547269423483
"49477, 49479",Ibbenbüren,49477,52.27931744372367,7.710167030087857
89335,Ichenhausen,89335,48.37188262099644,10.305278474733097
55743,Idar-Oberstein,55743,49.724495778791514,7.320724746818727
65510,Idstein,65510,50.236541836450044,8.236119670902037
89257,Illertissen,89257,48.228586163515956,10.106498184587597
"98693, 98694",Ilmenau,98693,50.68793650817887,10.932896826262743
38871,Ilsenburg (Harz),38871,51.868594792358444,10.71149016739967
74532,Ilshofen,74532,49.16714408241845,9.908882197215593
34376,Immenhausen,34376,51.430895909209035,9.483560601016949
87509,Immenstadt im Allgäu,87509,47.570506988964624,10.221060388575138
74653,Ingelfingen,74653,49.27823347942994,9.686440218818682
85049–85057,Ingolstadt,85049,48.76578689392043,11.375487339636418
97346,Iphofen,97346,49.70448863572297,10.25924965018226
58636–58644,Iserlohn,58636,51.3782117254154,7.711285265691552
88316,Isny im Allgäu,88316,47.692116843200736,10.040672893709528
46419,Isselburg,46419,51.834295831598915,6.456313588644987
25524,Itzehoe,25524,53.92837329238235,9.508942808661418
09477,Jöhstadt,09477,50.53323669360529,13.114746902646086
41363,Jüchen,41363,51.11067424758241,6.506844941939208
52428,Jülich,52428,50.92602631028577,6.364326984029712
14913,Jüterbog,14913,51.99119634442879,13.064668004976525
17126,Jarmen,17126,53.918459276637556,13.336021690393013
07743–07751,Jena,07743,50.94090257975042,11.591613423633957
"39307 (Brettin, Demsin, Kade, Karow, Klitsche, Roßdorf, Schlagenthin, Zabakuck),39319 (Jerichow, Nielebock, Redekin, Wulkow)Vorlage:Infobox Gemeinde in Deutschland/Wartung/PLZ enthält Text",Jerichow,39307,52.38009680782485,12.156092465254504
06917,Jessen (Elster),06917,51.80416539387169,12.974521177679852
26441,Jever,26441,53.56691061797925,7.896384003640075
16247,Joachimsthal,16247,52.97440309507338,13.796480648637315
08349,Johanngeorgenstadt,08349,50.43426469134355,12.710766343101893
41564,Kaarst,41564,51.21787737842324,6.608771923901981
07768,Kahla,07768,50.798972073015875,11.570266107738096
56759,Kaisersesch,56759,50.23256653450221,7.119027296614268
"67655, 67657, 67659, 67661, 67663",Kaiserslautern,67655,49.44165311239792,7.767954538406335
39624,Kalbe (Milde),39624,52.71248785837838,11.38747130608108
47546,Kalkar,47546,51.74449166390818,6.310321075366513
24568,Kaltenkirchen,24568,53.832203935270904,9.955556597631864
36452,Kaltennordheim,36452,50.62885253184616,10.133406913384615
59174,Kamen,59174,51.58300478446757,7.6577960323280845
01917,Kamenz,01917,51.279253615639014,14.095629299075112
47475,Kamp-Lintfort,47475,51.50085260596184,6.536666880405405
76870,Kandel,76870,49.08174809774748,8.189380614463545
79400,Kandern,79400,47.714098948075076,7.64737681159769
"24376, 24404Vorlage:Infobox Gemeinde in Deutschland/Wartung/PLZ enthält Text",Kappeln,24376,54.663249935747764,9.948712588602472
61184,Karben,61184,50.235413766181644,8.762613701199232
76131–76229,Karlsruhe,76131,49.01203885011007,8.429327408833242
97753,Karlstadt,97753,49.9696055281768,9.757461759116023
"34117–34134, 34355Vorlage:Infobox Gemeinde in Deutschland/Wartung/PLZ enthält Text",Kassel,34117,51.31539636298737,9.491980892202086
56288,Kastellaun,56288,50.059779201149425,7.443769659770115
56368,Katzenelnbogen,56368,50.26598171617647,7.920162819485295
56349,Kaub,56349,50.08799698567962,7.765263120873787
87600,Kaufbeuren,87600,47.88992305131968,10.626055130290615
77694,Kehl,77694,48.56775229123857,7.837266270181777
06537,Kelbra (Kyffhäuser),06537,51.42725204746377,11.034446243840579
93309,Kelheim,93309,48.91801191991606,11.891925717207172
65779,Kelkheim (Taunus),65779,50.144181149868146,8.438213960971547
25548,Kellinghusen,25548,53.95382140811564,9.717436616405433
65451,Kelsterbach,65451,50.060891114451245,8.531284711457998
06901,Kemberg,06901,51.78487433623079,12.623592172637943
99625,Kölleda,99625,51.19509346150944,11.23470105471698
50667–51149,Köln,50667,50.93841328177,6.954022536830949
15711–15713,Königs Wusterhausen,15711,52.285275234998025,13.62540698274773
97486,Königsberg in Bayern,97486,50.07852725445946,10.558545500675676
01936,Königsbrück,01936,51.27382793415701,13.91717183899614
86343,Königsbrunn,86343,48.26779587578125,10.889461886376953
07426,Königsee,07426,50.66610453858792,11.120897364964476
38154,Königslutter am Elm,38154,52.2624268729526,10.810756176737565
01824,Königstein (Sächsische Schweiz),01824,50.900534618083114,14.078804231748409
61462,Königstein im Taunus,61462,50.1803026419124,8.469339672029488
53639,Königswinter,53639,50.701467868237586,7.240634215290245
06420,Könnern,06420,51.678951556694564,11.764499665271966
"06366, 06369, 06388Vorlage:Infobox Gemeinde in Deutschland/Wartung/PLZ enthält Text",Köthen (Anhalt),06366,51.749044442906815,11.97364821689847
18225,Kühlungsborn,18225,54.1455659370216,11.742654142553997
97900,Külsheim,97900,49.670840057563694,9.531039043312102
74653,Künzelsau,74653,49.27823347942994,9.686440218818682
95478,Kemnath,95478,49.864162467081606,11.91875401659751
47906,Kempen,47906,51.37257576390796,6.434397432686954
"87435, 87437, 87439",Kempten (Allgäu),87435,47.71704675282505,10.310496351633764
79341,Kenzingen,79341,48.180704065460525,7.782209418640352
"50169, 50170, 50171",Kerpen,50169,50.885576215199364,6.7362439701116426
14669,Ketzin/Havel,14669,52.487042931267126,12.840356631883562
47623–47627,Kevelaer,47623,51.58075515936934,6.243419551957231
"24103–24118,24143–24149, 24159Vorlage:Infobox Gemeinde in Deutschland/Wartung/PLZ enthält Text",Kiel,24103,54.322833230045724,10.131414073024168
58566,Kierspe,58566,51.13146958728378,7.584441237657784
55481,Kirchberg (Hunsrück),55481,49.952233468650796,7.357848983730158
08107,Kirchberg,08107,50.613968447237966,12.521757314660055
74592,Kirchberg an der Jagst,74592,49.205615959526156,9.983043627936821
57548,Kirchen (Sieg),57548,50.809200210596025,7.876454531788079
"95158, 95100",Kirchenlamitz,95158,50.151123617924526,11.951276496226415
35274,Kirchhain,35274,50.83338172010244,8.910212942509604
73230,Kirchheim unter Teck,73230,48.645222354300465,9.452873942870418
67292,Kirchheimbolanden,67292,49.664952993354575,8.007704227309967
55606,Kirn,55606,49.78609368173469,7.488453766020409
"36320,36326 (Dammeshof, Dammesmühle)Vorlage:Infobox Gemeinde in Deutschland/Wartung/PLZ enthält Text",Kirtorf,36320,50.77637649030695,9.117991301292408
97318,Kitzingen,97318,49.73622266407383,10.164040101186552
04567,Kitzscher,04567,51.16918731330049,12.549030704152006
38486,Klötze,38486,52.666895418786126,11.167228820231214
"23948,23946 (Tarnewitzerhagen)Vorlage:Infobox Gemeinde in Deutschland/Wartung/PLZ enthält Text",Klütz,23948,53.96076961912162,11.156772708378378
47533,Kleve,47533,51.78965336905095,6.127999433503184
63911,Klingenberg am Main,63911,49.77409576402189,9.182736555129958
"08248, 08267Vorlage:Infobox Gemeinde in Deutschland/Wartung/PLZ enthält Text",Klingenthal,08248,50.37191741521823,12.473391654345306
75438,Knittlingen,75438,49.0246876131404,8.771621003441533
56068–56077,Koblenz,56068,50.3533282189781,7.594037979379562
83059,Kolbermoor,83059,47.846810409284004,12.053884961185338
"78462, 78464, 78465, 78467",Konstanz,78462,47.66197125403319,9.170829465688923
54329,Konz,54329,49.69024974451906,6.590977752177858
"34497, 34513",Korbach,34497,51.27047017959673,8.865734428962211
70825,Korntal-Münchingen,70825,48.840822841737804,9.109452792713414
"70806, 71638",Kornwestheim,70806,48.86211402075399,9.190467618118868
41352,Korschenbroich,41352,51.18644961729176,6.540924562665527
18236,Kröpelin,18236,54.07095688649168,11.791321007426376
76703,Kraichtal,76703,49.13160609767726,8.718958515831297
18292,Krakow am See,18292,53.6668761277027,12.281308798986487
74238,Krautheim,74238,49.38572966151363,9.641644304196557
"47798–47809, 47829, 47839",Krefeld,47798,51.331789163186016,6.558583210955807
16766,Kremmen,16766,52.77154264414414,13.029462763273273
25361,Krempe,25361,53.83466958768011,9.502946898198848
57223,Kreuztal,57223,50.96796155876174,7.990312845118851
96317,Kronach,96317,50.24052625903785,11.327370573664663
61476,Kronberg im Taunus,61476,50.18206241860519,8.522987455050973
39397,Kroppenstedt,39397,51.95408167097868,11.173557989728682
86381,Krumbach (Schwaben),86381,48.243263442073314,10.368928926056503
95326,Kulmbach,95326,50.10453700954887,11.443509403609022
95362,Kupferberg,95362,50.13903244047619,11.577545683333334
76456,Kuppenheim,76456,48.828369226450114,8.261051017014694
66869,Kusel,66869,49.53879214556753,7.396291695774647
54655,Kyllburg,54655,50.052492565753425,6.595118361643836
16866,Kyritz,16866,52.94873926545884,12.396225336471051
18299,Laage,18299,53.91420256999613,12.31632347739063
30880,Laatzen,30880,52.29129053579437,9.841595530161335
68526,Ladenburg,68526,49.47416181946375,8.609323443032109
32791,Lage,32791,51.9864885668153,8.78410189682917
56112,Lahnstein,56112,50.310284832369035,7.61752742392494
77933,Lahr/Schwarzwald,77933,48.335643540335795,7.865198722524527
89150,Laichingen,89150,48.485972395952786,9.660338357841484
67466,Lambrecht (Pfalz),67466,49.36938675161987,8.068545957019438
68623,Lampertheim,68623,49.6087650604662,8.459616934700854
94405,Landau an der Isar,94405,48.66848307304687,12.70123651875
"76829,76857 (Taubensuhl)Vorlage:Infobox Gemeinde in Deutschland/Wartung/PLZ enthält Text",Landau in der Pfalz,76829,49.199555849163765,8.112864394303422
06188,Landsberg,06188,51.52266317570174,12.108132123058377
"86899, 86932",Landsberg am Lech,86899,48.04605604752862,10.867776496347297
84028–84036,Landshut,84028,48.53786416294821,12.161557482071712
66849,Landstuhl,66849,49.40792074360485,7.57244272235702
"38685, 38729 (Lutter)Vorlage:Infobox Gemeinde in Deutschland/Wartung/PLZ enthält Text",Langelsheim,38685,51.92448001719274,10.321459104432506
63225,Langen,63225,49.990029440336464,8.666036514915884
89129,Langenau,89129,48.495668100048576,10.107151711076027
74595,Langenburg,74595,49.2530944529476,9.85428592489083
40764,Langenfeld (Rheinland),40764,51.11410657795783,6.955702429200833
"30851, 30853, 30855, 30669Vorlage:Infobox Gemeinde in Deutschland/Wartung/PLZ enthält Text",Langenhagen,30851,52.43175436252378,9.73271084159797
63505,Langenselbold,63505,50.17978497203947,9.037803286118422
90579,Langenzenn,90579,49.488065641125544,10.789682125541125
17440,Lassan,17440,54.03813277770945,13.796733088470408
35321,Laubach,35321,50.5429918295203,8.989379202386225
06636,Laucha an der Unstrut,06636,51.23359479008621,11.661806508477012
01979,Lauchhammer,01979,51.49436894714203,13.756533423522574
73466,Lauchheim,73466,48.87156431015385,10.249758250276923
97922,Lauda-Königshofen,97922,49.55524965240647,9.721152043354703
21481,Lauenburg/Elbe,21481,53.37606666865136,10.548806705093257
08294,Lößnitz,08294,50.625119282623764,12.736980119059407
02708,Löbau,02708,51.084556648427906,14.65750185302137
79843,Löffingen,79843,47.88347636791604,8.34713862293853
32584,Löhne,32584,52.20146970354293,8.723988657610978
49624,Löningen,49624,52.73908329717327,7.763298282433921
79539–79541,Lörrach,79539,47.6191534532576,7.662903306849316
74245,Löwenstein,74245,49.10204754460363,9.38383415816619
32312,Lübbecke,32312,52.30920492921644,8.621181245764383
15907,Lübben (Spreewald),15907,51.94391028079511,13.887484224434251
03222,Lübbenau/Spreewald,03222,51.85835158210981,13.945686885070943
"23552–23570, 23627, 23628Vorlage:Infobox Gemeinde in Deutschland/Wartung/PLZ enthält Text",Lübeck,23552,53.8675491746036,10.687633315372212
19249,Lübtheen,19249,53.301065064072226,11.085604229265254
19386,Lübz,19386,53.46431635582032,12.0521505280745
29439,Lüchow (Wendland),29439,52.970362806171785,11.154802252047782
58507–58515,Lüdenscheid,58507,51.22845583549932,7.626457191963064
59348,Lüdinghausen,59348,51.768122957607616,7.434282704617134
32676,Lügde,32676,51.92703460963961,9.265827834222092
"21335, 21337, 21339, 21391",Lüneburg,21335,53.23271179410729,10.396765896721755
"44532, 44534, 44536",Lünen,44532,51.59531085143678,7.535784831379311
24321,Lütjenburg,24321,54.30732720527116,10.591870246071972
"06679, 06686",Lützen,06679,51.16070189806139,12.078094367689822
91207,Lauf an der Pegnitz,91207,49.51620387435075,11.27447762137183
83410,Laufen,83410,47.93116356117274,12.917343359667196
79725,Laufenburg (Baden),79725,47.57264648122288,8.068081552110453
74348,Lauffen am Neckar,74348,49.07193576793091,9.147298304431093
89415,Lauingen (Donau),89415,48.56898701495957,10.429157491778975
88471,Laupheim,88471,48.22940390374332,9.87394486619952
98724,Lauscha,98724,50.49619366540351,11.146591559040935
02991,Lauta,02991,51.44882184985391,14.09970149488678
08315,Lauter-Bernsbach,08315,50.570069568513354,12.75008562849741
36341,Lauterbach,36341,50.63829452952207,9.3853742
67742,Lauterecken,67742,49.64904149531067,7.592400290973036
73111,Lauterstein,73111,48.71067484010554,9.869877033905013
66822,Lebach,66822,49.42470097305204,6.9254334002646285
15326,Lebus,15326,52.418328630669144,14.453951465799257
26789,Leer (Ostfriesland),26789,53.23701036928639,7.461416629896259
07349,Lehesten,07349,50.459120413475176,11.461557439716312
31275,Lehrte,31275,52.37627311605175,10.005641755063088
42799,Leichlingen (Rheinland),42799,51.10806791948165,7.039993574975198
69181,Leimen,69181,49.34489189334275,8.682163805063547
"37327, 37339",Leinefelde-Worbis,37327,51.38862263034826,10.325232362023218
"70771, 71144",Leinfelden-Echterdingen,70771,48.68943461288014,9.148519171782945
74211,Leingarten,74211,49.14419745616883,9.11664987594451
89340,Leipheim,89340,48.45120099017132,10.218803157258792
04103–04357,Leipzig,04103,51.335098323908525,12.388462272487873
04703,Leisnig,04703,51.168570066023165,12.930507835675677
32657,Lemgo,32657,52.0291414874465,8.89495986325091
08485,Lengenfeld,08485,50.573243629249866,12.370464276092823
49525,Lengerich,49525,52.18098217419512,7.8535788933008135
57368,Lennestadt,57368,51.12635515956101,8.066803287604905
19309,Lenzen (Elbe),19309,53.09292325458052,11.456566664416586
71229,Leonberg,71229,48.797891695983985,9.008008612387771
35638,Leun,35638,50.54418437092637,8.335224308361045
06237,Leuna,06237,51.3301571509281,12.088466864810458
07338,Leutenberg,07338,50.58981064513081,11.450379478415698
91578,Leutershausen,91578,49.29646503097015,10.422197406343285
88299,Leutkirch im Allgäu,88299,47.82516600026685,10.024937129953303
51371–51381,Leverkusen,51371,51.05723530669913,6.945374628307588
35423,Lich,35423,50.51042639770162,8.820752011635543
77839,Lichtenau,77839,48.71900530179181,7.999075710068259
95192,Lichtenberg,95192,50.383742954,11.676905850666666
35104,Lichtenfels,35104,51.16493768231511,8.792994597299035
96215,Lichtenfels,96215,50.141534249104296,11.07287293411624
09350,Lichtenstein/Sa.,09350,50.74862332546023,12.633435394442515
34396,Liebenau,34396,51.479223253648065,9.30967342918455
16559,Liebenwalde,16559,52.86593759728682,13.384315782945736
15868,Lieberose,15868,51.99426824107612,14.319509659186352
01825,Liebstadt,01825,50.86424310820895,13.847216296828359
09212,Limbach-Oberfrohna,09212,50.86124092706798,12.74461590364134
65549–65556,Limburg an der Lahn,65549,50.38829448286026,8.065006623034934
88131,Lindau (Bodensee),88131,47.56245847113341,9.691404960581464
35440,Linden,35440,50.53005950946321,8.66482217968533
88161,Lindenberg im Allgäu,88161,47.60387824405019,9.890514913500649
"64678,64658 (Faustenbach)Vorlage:Infobox Gemeinde in Deutschland/Wartung/PLZ enthält Text",Lindenfels,64678,49.68967989296924,8.771043153232894
16835,Lindow (Mark),16835,52.91683128965517,12.966666122488755
"49808, 49809, 49811",Lingen (Ems),49808,52.52067698357895,7.3035041005964905
52441,Linnich,52441,50.97565018569866,6.282337514279466
53545,Linz am Rhein,53545,50.56884067611292,7.285960697394137
59555–59558,Lippstadt,59555,51.68111988202004,8.339721663136176
53797,Lohmar,53797,50.86247371524378,7.244076611768161
49393,Lohne (Oldenburg),49393,52.66319325354519,8.235054447035708
97816,Lohr am Main,97816,50.00165107498572,9.581151700485437
17121,Loitz,17121,53.97948732174984,13.125218570979667
35457,Lollar,35457,50.66046338827795,8.704161868912387
01623,Lommatzsch,01623,51.1988906039521,13.304424798383232
65391,Lorch,65391,50.066679710114705,7.824077772158499
73547,Lorch,73547,48.7954668492455,9.671829194602438
64653,Lorsch,64653,49.65148939183414,8.565477471762911
04613,Lucka,04613,51.09329170447285,12.331228029872204
15926,Luckau,15926,51.83978658958068,13.704643797109275
14943,Luckenwalde,14943,52.09010422081327,13.162136830354914
"71634–71642, 71672",Ludwigsburg,71634,48.905131266655516,9.175819726454849
14974,Ludwigsfelde,14974,52.30047634732155,13.247175763907054
67059–67071,Ludwigshafen am Rhein,67059,49.48031878085847,8.437976820185614
19288,Ludwigslust,19288,53.33341360681382,11.466210903973128
96337,Ludwigsstadt,96337,50.485600383333335,11.385205094892473
09385,Lugau,09385,50.75046058992908,12.750783300567377
09328,Lunzenau,09328,50.96501585525926,12.749841572740742
17279,Lychen,17279,53.21454716131934,13.308427377511245
15748,Märkisch Buchholz,15748,52.11870927067138,13.793725659893992
"39279 (Hobeck, Loburg, Rosian, Schweinitz, Zeppernick),39291 (übrige Ortschaften)Vorlage:Infobox Gemeinde in Deutschland/Wartung/PLZ enthält Text",Möckern,39279,52.09638628665405,12.050007829436819
74219,Möckmühl,74219,49.31939230662393,9.357764363675214
23879,Mölln,23879,53.61996024135688,10.691416046236059
41061–41239,Mönchengladbach,41061,51.19546482506812,6.434822162323508
64546,Mörfelden-Walldorf,64546,49.99026006784198,8.571381402625144
72116,Mössingen,72116,48.4029817071881,9.063588115991134
"06249,06255 (Wünsch),06268 (Langeneichstädt, Oechlitz),06632 (Branderoda, Gröst)Vorlage:Infobox Gemeinde in Deutschland/Wartung/PLZ enthält Text",Mücheln (Geiseltal),06249,51.3035234137013,11.805835770714285
04769,Mügeln,04769,51.240636012593704,13.074920292353823
75417,Mühlacker,75417,48.94304700867873,8.848347607917441
"04931 (Altenau, Fichtenberg, Mühlberg)04895 (Brottewitz, Koßdorf, Martinskirchen)Vorlage:Infobox Gemeinde in Deutschland/Wartung/PLZ enthält Text",Mühlberg/Elbe,04931,51.43977561990521,13.250860340081246
84453,Mühldorf am Inn,84453,48.248649004037375,12.525842101445699
"99974, 99976, 99998",Mühlhausen/Thüringen,99974,51.20900589128904,10.443063042099084
63165,Mühlheim am Main,63165,50.11642234814619,8.840636985610875
78570,Mühlheim an der Donau,78570,48.02747173676248,8.881021796747353
56218,Mülheim-Kärlich,56218,50.389394642852984,7.499995949636099
45468–45481,Mülheim an der Ruhr,45468,51.42848804792676,6.886528517528272
79379,Müllheim im Markgräflerland,79379,47.81053463034695,7.632491614756258
15299,Müllrose,15299,52.23396625628518,14.414233824953097
95213,Münchberg,95213,50.195188892796615,11.776908218502825
99441,Magdala,99441,50.934785470810816,11.43667424132678
39104–39130,Magdeburg,39104,52.1214945228609,11.635601078060553
77972,Mahlberg,77972,48.28292736693969,7.806441240506329
97350,Mainbernheim,97350,49.70986989590793,10.219487185294117
84048,Mainburg,84048,48.64316889199701,11.785172492744952
63477,Maintal,63477,50.146801692465665,8.8317222793608
55116–55131,Mainz,55116,49.99935659,8.270069014330709
17139,Malchin,17139,53.726416468337725,12.76386030817942
17213,Malchow,17213,53.47475806267345,12.432881600138762
54531,Manderscheid,54531,50.0933192248927,6.823680236480686
68159–68309,Mannheim,68159,49.491458935363,8.461238694613584
06343,Mansfeld,06343,51.59617179556547,11.413238800026239
"71672, 71711",Marbach am Neckar,71672,48.9427360140661,9.277089879938508
"35037, 35039, 35041, 35043",Marburg,35037,50.80570771355692,8.760168378908833
09496,Marienberg,09496,50.63493760035165,13.204602019318681
37696,Marienmünster,37696,51.823331540958016,9.227287636598493
88677,Markdorf,88677,47.71826809056604,9.391050349138638
71706,Markgröningen,71706,48.91096043778367,9.076492109195403
04416,Markkleeberg,04416,51.27360264734378,12.37582830797767
08258,Markneukirchen,08258,50.30917982825615,12.340103760781476
04420,Markranstädt,04420,51.30150677430442,12.22269467416803
97340,Marktbreit,97340,49.652527148000004,10.137364481565218
97828,Marktheidenfeld,97828,49.84666148918919,9.59457877927928
95168,Marktleuthen,95168,50.12953019634783,12.006852842695652
87616,Marktoberdorf,87616,47.7683823347745,10.611155010054256
95615,Marktredwitz,95615,50.00313325067931,12.086538384157908
97342,Marktsteft,97342,49.66293348813559,10.173488481355932
"45768, 45770, 45772",Marl,45768,51.650946691175285,7.075460429589517
18337,Marlow,18337,54.16048713367656,12.499137256571775
25709,Marne,25709,53.954894161393895,9.001284198225006
34431,Marsberg,34431,51.45275962712657,8.845987306401637
75433,Maulbronn,75433,48.99572564318841,8.81483182384058
93142,Maxhütte-Haidhof,93142,49.18925938343465,12.101982214893617
"56727,56729 (Geisbüschhof, Wüsteratherhof)Vorlage:Infobox Gemeinde in Deutschland/Wartung/PLZ enthält Text",Mayen,56727,50.325418207488475,7.2275224150921655
88605,Meßkirch,88605,47.96241462366738,9.10490708713575
72469,Meßstetten,72469,48.177186017071286,8.938227820609503
53894,Mechernich,53894,50.5963137482297,6.656244443548546
53340,Meckenheim,53340,50.62480309053458,7.032863535188818
59964,Medebach,59964,51.20989628890154,8.690121013403528
08393,Meerane,08393,50.84610156321982,12.468089519029927
"40667, 40668, 40670",Meerbusch,40667,51.24960684603677,6.691368397726824
88709,Meersburg,88709,47.693582283434154,9.28331272177757
01662,Meißen,01662,51.16079923915411,13.47833878504266
58540,Meinerzhagen,58540,51.10708310324305,7.688553323051409
98617,Meiningen,98617,50.572068093776004,10.403863474566574
55590,Meisenheim,55590,49.70727621658878,7.668810954595016
25704,Meldorf,25704,54.09005455500198,9.079487904962436
"49324, 49326, 49328",Melle,49324,52.2135651930772,8.325494909568684
97638,Mellrichstadt,97638,50.42842306122149,10.304054150699043
34212,Melsungen,34212,51.13378618990264,9.549413438946988
87700,Memmingen,87700,47.98756699433724,10.172439150856627
"58706, 58708, 58710",Menden (Sauerland),58706,51.43920154251968,7.7928873974409445
56743,Mendig,56743,50.3717962525641,7.281440308974358
88512,Mengen,88512,48.048969150539,9.331348308592265
49716,Meppen,49716,52.69244270935211,7.282518842479528
91732,Merkendorf,91732,49.20301304072165,10.703164022164948
06217,Merseburg,06217,51.35379020645568,11.981118475216501
59872,Meschede,59872,51.348527186425876,8.249453313266521
40822,Mettmann,40822,51.2551353154334,6.968777581617892
72555,Metzingen,72555,48.53643133913901,9.29102077221492
04610,Meuselwitz,04610,51.04881253225806,12.311428717264038
16945,Meyenburg,16945,53.292769588192776,12.234692843373494
"64720,63925 (Vielbrunn-Brunnthal)Vorlage:Infobox Gemeinde in Deutschland/Wartung/PLZ enthält Text",Michelstadt,64720,49.67987725541388,9.009824400021612
83714,Miesbach,83714,47.788658971648445,11.831423799513974
63897,Miltenberg,63897,49.70235783962149,9.258380978571429
87719,Mindelheim,87719,48.05007440107963,10.493027572964463
"32423, 32425, 32427, 32429",Minden,32423,52.2930188110262,8.94233249544214
17252,Mirow,17252,53.28437085203308,12.818076914541695
15749,Mittenwalde,15749,52.25516727837838,13.547501641226942
95666,Mitterteich,95666,49.952751434018154,12.24440602541806
09648,Mittweida,09648,50.99039576250894,12.978155087979966
"47441, 47443, 47445, 47447",Moers,47441,51.446381907875505,6.63670228879567
86653,Monheim,86653,48.826360364735514,10.871856884760705
40789,Monheim am Rhein,40789,51.101559952139446,6.893804345890172
52156,Monschau,52156,50.555566636186455,6.244183133976291
56410,Montabaur,56410,50.434155073002756,7.8221227843726515
85368,Moosburg an der Isar,85368,48.47011479327055,11.938286404777397
37186,Moringen,37186,51.720252103994085,9.821285181065088
74821,Mosbach,74821,49.36003460619783,9.130930723213265
15374,Müncheberg,15374,52.51870252832117,14.16828877810219
"80331–81929, 85540[A 1]",München,80331,48.136083761803384,11.573627627113337
07589,Münchenbernsdorf,07589,50.8274079968523,11.939694066343826
97702,Münnerstadt,97702,50.24707452470588,10.227290485294118
72525,Münsingen,72525,48.4032333246581,9.497663745959386
48143–48167,Münster,48143,51.96181150094991,7.626601367141624
"56294,56754 (Pilligerheck)Vorlage:Infobox Gemeinde in Deutschland/Wartung/PLZ enthält Text",Münstermaifeld,56294,50.25221439357143,7.359861225714286
35516,Münzenberg,35516,50.459978517218545,8.749721367549668
89597,Munderkingen,89597,48.234902608462455,9.645332214183552
29633,Munster,29633,52.987609954764515,10.087584093975902
71540,Murrhardt,71540,48.97838474694736,9.59710079897076
92507,Nabburg,92507,49.45241074160325,12.184552706088281
72202,Nagold,72202,48.53262836541247,8.724895634627767
95119,Naila,95119,50.32801495045386,11.697536498940998
56377,Nassau,56377,50.30924634843945,7.795440994007491
56355,Nastätten,56355,50.197258971596995,7.860010418435155
14641,Nauen,14641,52.57797218638184,12.89001278503459
34311,Naumburg,34311,51.24280388257093,9.186335317892299
"06618, 06628",Naumburg (Saale),06618,51.1435333814263,11.81056629992076
04683,Naunhof,04683,51.279460000127344,12.58351734597262
06642,Nebra (Unstrut),06642,51.27308483225623,11.53355953962585
74924,Neckarbischofsheim,74924,49.287711162329806,8.977319755143721
69151,Neckargemünd,69151,49.38915679114024,8.80461814214941
69239,Neckarsteinach,69239,49.41282719086294,8.839888788324874
74172,Neckarsulm,74172,49.19883532674265,9.235424845681719
"73450, 73441",Neresheim,73450,48.77371724038128,10.32532837015598
57250,Netphen,57250,50.904172913616016,8.120920513958389
41334,Nettetal,41334,51.31045173802585,6.246396548686288
08491,Netzschkau,08491,50.602928054326924,12.245145953269231
84524,Neuötting,84524,48.240564924067165,12.692134821921643
61267,Neu-Anspach,61267,50.301564672196875,8.508522384681873
63263,Neu-Isenburg,63263,50.050829227917404,8.691791591868096
"89231, 89233",Neu-Ulm,89231,48.38603538582127,10.011412750441005
"17033, 17034, 17036",Neubrandenburg,17033,53.5451405523984,13.250671787358428
18233,Neubukow,18233,54.02353683074534,11.670188577080745
"75387, 75385",Neubulach,75387,48.664398347589895,8.693014752257078
86633,Neuburg an der Donau,86633,48.733848059106876,11.196982207860847
74861,Neudenau,74861,49.29133078301587,9.277403273492064
75305,Neuenbürg,75305,48.84567432012195,8.583540166666667
79395,Neuenburg am Rhein,79395,47.8119905402518,7.5645471260431645
49828,Neuenhaus,49828,52.50496582710843,6.980400396385542
58809,Neuenrade,58809,51.28225353685497,7.803108686961832
74196,Neuenstadt am Kocher,74196,49.239934165316456,9.324826938196203
74632,Neuenstein,74632,49.21555228732687,9.586187074584487
54673,Neuerburg,54673,50.022025958823534,6.276096502205882
72639,Neuffen,72639,48.55477204511991,9.370388649358617
98724,Neuhaus am Rennweg,98724,50.49619366540351,11.146591559040935
17154,Neukalen,17154,53.82207703373984,12.786360765447155
47506,Neukirchen-Vluyn,47506,51.443105827853365,6.554654951045603
34626,Neukirchen,34626,50.86876542851406,9.345556879288582
23992,Neukloster,23992,53.86883455889411,11.687508805372978
"24534, 24536, 24537, 24539",Neumünster,24534,54.07459184948838,9.982955097674418
99439,Neumark,99439,51.066249941622196,11.303762690074706
84494,Neumarkt-Sankt Veit,84494,48.34364781104735,12.5080055205165
92318,Neumarkt in der Oberpfalz,92318,49.28027398590291,11.45348438007767
92431,Neunburg vorm Wald,92431,49.345590901698756,12.380132017176292
66538–66540,Neunkirchen,66538,49.34306935745269,7.185149810588985
"16816, 16818, 16827, 16833, 16835",Neuruppin,16816,52.91949115053481,12.805755145309485
86356,Neusäß,86356,48.38919340880917,10.819124405710102
02742,Neusalza-Spremberg,02742,51.03181436978244,14.541898051410154
41460–41472,Neuss,41460,51.20085087545887,6.693332238205302
19306,Neustadt-Glewe,19306,53.382891307563355,11.596953937270955
16845,Neustadt (Dosse),16845,52.84287405271002,12.435085811178862
35279,Neustadt (Hessen),35279,50.85268214267263,9.109063599453552
95514,Neustadt am Kulm,95514,49.828679195999996,11.83718814
31535,Neustadt am Rübenberge,31535,52.51879970735031,9.455052301447505
91413,Neustadt an der Aisch,91413,49.5786197229351,10.580551237831857
93333,Neustadt an der Donau,93333,48.8139691541157,11.766763419966942
07806,Neustadt an der Orla,07806,50.719537383643356,11.740282227645926
92660,Neustadt an der Waldnaab,92660,49.73295333171913,12.175873993825665
"67433, 67434, 67435",Neustadt an der Weinstraße,67433,49.353751584604034,8.142513114608953
96465,Neustadt bei Coburg,96465,50.3324303094155,11.11685005879397
23730,Neustadt in Holstein,23730,54.10215035775369,10.82796928155665
17235,Neustrelitz,17235,53.35132110889084,13.07868581472271
93073,Neutraubling,93073,48.98820925871886,12.20128542051116
"56564, 56566, 56567",Neuwied,56564,50.435105563724896,7.470065273463177
63667,Nidda,63667,50.42699347893951,9.0114896879761
"61194,61130 (Winnerhöfe)Vorlage:Infobox Gemeinde in Deutschland/Wartung/PLZ enthält Text",Niddatal,61194,50.28527527738213,8.817396925980876
61130,Nidderau,61130,50.2335963520291,8.883096894050121
52385,Nideggen,52385,50.679174151592676,6.4759362742162025
25899,Niebüll,25899,54.779973832,8.813674694538463
34305,Niedenstein,34305,51.214334933792045,9.306295182874619
55268,Nieder-Olm,55268,49.90545671118513,8.204666583380083
53859,Niederkassel,53859,50.80798238690426,7.040391737280962
74676,Niedernhall,74676,49.28984883347236,9.618443027111574
"97996, 97980",Niederstetten,97996,49.4016073982069,9.92455463324138
89168,Niederstotzingen,89168,48.54124213844086,10.235606584408602
33039,Nieheim,33039,51.81081081850911,9.106745581152055
14823,Niemegk,14823,52.06475297927928,12.676190745495495
31582,Nienburg/Weser,31582,52.63795331180317,9.218211194674556
06429,Nienburg (Saale),06429,51.83566142802198,11.772030713736264
55283,Nierstein,55283,49.86876457016837,8.332612677306003
02906,Niesky,02906,51.2829624570541,14.771216086058494
93149,Nittenau,93149,49.21294348851964,12.242193198942598
26506,Norden,26506,53.595330647558775,7.194130778587384
26954,Nordenham,26954,53.494431834093675,8.481063712439173
26548,Norderney,26548,53.70904888306063,7.153597213763234
"22844, 22846, 22848, 22850, 22851",Norderstedt,22844,53.72409929127451,10.002534501053923
99734,Nordhausen,99734,51.50585285876734,10.78839735515124
74613,Öhringen,74613,49.2011307084547,9.504931389237752
76684,Östringen,76684,49.18185956045786,8.758730024453694
86720,Nördlingen,86720,48.84997921721239,10.490626776548673
90402–90491,Nürnberg,90402,49.44957774785912,11.08015872955801
72622,Nürtingen,72622,48.623888454895415,9.33769195064323
"48527, 48529, 48531",Nordhorn,48527,52.44076130634582,7.053681927731419
37154,Northeim,37154,51.69453338017591,9.993540089715832
24589,Nortorf,24589,54.167001044601776,9.861087881168142
01683,Nossen,01683,51.08766932726433,13.307082772520024
99994,Nottertal-Heilinger Höhen,99994,51.25820325771812,10.661257163758389
64372,Ober-Ramstadt,64372,49.82029462498315,8.748959466277242
90522,Oberasbach,90522,49.42499575116696,10.966624319928187
75038,Oberderdingen,75038,49.06686488050162,8.794022409668285
"38875 (Elbingerode, Elend, Königshütte, Sorge, Tanne),38877 (Benneckenstein),38889 (Rübeland),38899 (Hasselfelde, Stiege, Trautenstein)Vorlage:Infobox Gemeinde in Deutschland/Wartung/PLZ enthält Text",Oberharz am Brocken,38875,51.75121849479231,10.770783000371978
"46045, 46047, 46049,46117, 46119,46145, 46147, 46149Vorlage:Infobox Gemeinde in Deutschland/Wartung/PLZ enthält Text",Oberhausen,46045,51.466519191327315,6.858066252454326
98559,Oberhof,98559,50.70466536581197,10.724083696153846
77704,Oberkirch,77704,48.53526271084011,8.062327647077042
73447,Oberkochen,73447,48.78863636096611,10.106996629061161
09353,Oberlungwitz,09353,50.7875248727911,12.731173809771796
67823,Obermoschel,67823,49.72302625954046,7.757104438261738
63785,Obernburg am Main,63785,49.837842206944444,9.130910615432098
78727,Oberndorf am Neckar,78727,48.29683850612067,8.57247963130037
31683,Obernkirchen,31683,52.2667306869208,9.126923588662503
71739,Oberriexingen,71739,48.928274158026156,9.023298231629013
63179,Obertshausen,63179,50.075092335966275,8.855653544242289
61440,Oberursel (Taunus),61440,50.20307576947539,8.578471346566742
92526,Oberviechtach,92526,49.46692235483871,12.42883242450481
55430,Oberwesel,55430,50.098223881325296,7.724966197389558
09484,Oberwiesenthal,09484,50.424829395762714,12.97729995677966
64760,Oberzent,64760,49.55361093777574,8.971351822012867
97199,Ochsenfurt,97199,49.66414153679121,10.065426191692307
88416,Ochsenhausen,88416,48.049909962062614,9.91408479023941
48607,Ochtrup,48607,52.20734921866477,7.193053750967333
16248,Oderberg,16248,52.872498368365555,14.017757125834798
"39343 (Schwanefeld),39356 (Döhren u. a.),39359 (Bösdorf u. a.),39646 (Oebisfelde)siehe „Stadtgliederung“Vorlage:Infobox Gemeinde in Deutschland/Wartung/PLZ enthält Text",Oebisfelde-Weferlingen,39343,52.2315563235,11.297060756086207
09569,Oederan,09569,50.863319898401556,13.180855061676413
59302,Oelde,59302,51.82633247286512,8.157131466351286
09376,Oelsnitz/Erzgeb.,09376,50.71849944831425,12.715311576017811
08606,Oelsnitz/Vogtl.,08606,50.41243420420282,12.15891335780911
45739,Oer-Erkenschwick,45739,51.64356848182932,7.254023793672438
33813,Oerlinghausen,33813,51.95357819137424,8.670459601823172
65375,Oestrich-Winkel,65375,50.004983920873336,8.015410606410654
86732,Oettingen in Bayern,86732,48.95360247868264,10.600971625868263
63065–63075,Offenbach am Main,63065,50.10402466530249,8.766658660260973
"77652, 77654, 77656",Offenburg,77652,48.48411699440086,7.939957944044222
99885,Ohrdruf,99885,50.80508123895169,10.744498000685166
09526,Olbernhau,09526,50.67216750100984,13.344026802097359
82140,Olching,82140,48.209934430826486,11.334314026872383
26121–26135,Oldenburg (Oldb),26121,53.153269552738784,8.208977830057803
23758,Oldenburg in Holstein,23758,54.29258275995679,10.88260900003601
59399,Olfen,59399,51.706700088422,7.373015465131873
57462,Olpe,57462,51.030422589490634,7.86037986074356
59939,Olsberg,59939,51.337365602217616,8.489984616062177
77728,Oppenau,77728,48.47374133927158,8.163144337608868
55276,Oppenheim,55276,49.848460401558626,8.35817825621679
06785,Oranienbaum-Wörlitz,06785,51.81754770414791,12.413509175144695
16515,Oranienburg,16515,52.754147853200045,13.26737823864838
07768,Orlamünde,07768,50.798972073015875,11.570266107738096
91737,Ornbau,91737,49.17675597142857,10.650141530158729
63683,Ortenberg,63683,50.35297089083918,9.067694406920763
01990,Ortrand,01990,51.37639469661458,13.74869380078125
04758,Oschatz,04758,51.31332393690406,13.11067265824014
39387,Oschersleben (Bode),39387,52.02911431283352,11.245013733360615
49074–49090,Osnabrück,49074,52.27413010586836,8.04761485257732
39606,Osterburg (Altmark),39606,52.790323480762986,11.729936345048701
74706,Osterburken,74706,49.43568126502989,9.414736755764304
06721,Osterfeld,06721,51.07800871623932,11.950981734188034
94486,Osterhofen,94486,48.64041613838496,12.991153457964602
27711,Osterholz-Scharmbeck,27711,53.233028470075375,8.790287503643215
37520,Osterode am Harz,37520,51.730862423070924,10.250219566504287
"38835 (Berßel, Bühne, Deersheim, Hessen, Lüttgenrode, Osterode, Osterwieck, Rhoden, Schauen, Veltheim, Wülperode, Zilly),38836 (Dardesheim, Rohrsheim)Vorlage:Infobox Gemeinde in Deutschland/Wartung/PLZ enthält Text",Osterwieck,38835,51.99079090832013,10.728166570285262
73760,Ostfildern,73760,48.7191834789648,9.266334509125475
"97645, 97647",Ostheim vor der Rhön,97645,50.4552637165659,10.201695207738815
67574,Osthofen,67574,49.70397529900626,8.322942759072506
02899,Ostritz,02899,51.03092965810717,14.915173797146833
67697,Otterberg,67697,49.5016358080574,7.768014760651214
21762,Otterndorf,21762,53.812009002861586,8.897549969735614
66564,Ottweiler,66564,49.408698831639086,7.181188849211978
51491,Overath,51491,50.94416828988536,7.2751791418079765
73277,Owen,73277,48.58798810409091,9.450841887181818
33098–33106,Paderborn,33098,51.711767835042316,8.754679739941407
26871,Papenburg,26871,53.07425475921455,7.405974528711688
91788,Pappenheim,91788,48.93537067216643,11.001055742898135
"19370, 19374",Parchim,19370,53.424687235658176,11.844031485693883
92331,Parsberg,92331,49.16392782821577,11.722559655601659
17309,Pasewalk,17309,53.5113894617163,14.013492276645767
"94032, 94034, 94036",Passau,94032,48.57024572644231,13.459024124134615
30982,Pattensen,30982,52.246321513136614,9.764292097158469
"07919, 07952, 08539Vorlage:Infobox Gemeinde in Deutschland/Wartung/PLZ enthält Text",Pausa-Mühltroff,07919,50.53796754419476,11.920125697003746
04523,Pegau,04523,51.177105460272045,12.244478594606003
91257,Pegnitz,91257,49.76095459336207,11.53071984637931
"31224, 31226, 31228",Peine,31224,52.32544211418523,10.261430910111372
03185,Peitz,03185,51.85849749477546,14.410913851482242
09322,Penig,09322,50.94069844130106,12.701078336951587
17328,Penkun,17328,53.29580479957537,14.221186658386411
82377,Penzberg,82377,47.757792870622175,11.37373300378826
17217,Penzlin,17217,53.513437347816435,13.084753023760177
19348,Perleberg,19348,53.08144545118916,11.856540610564158
32469,Petershagen,32469,52.39100097487601,8.995637181438381
85276,Pfaffenhofen an der Ilm,85276,48.52921988808124,11.499712123490111
07381,Pößneck,07381,50.70111880016212,11.6005108098622
66346,Püttlingen,66346,49.29219700169985,6.894313051209801
84347,Pfarrkirchen,84347,48.432130448309174,12.93784511594203
75172–75181,Pforzheim,75172,48.891154081739124,8.687345830931678
92536,Pfreimd,92536,49.49133458743351,12.18286731349734
88630,Pfullendorf,88630,47.92176264073973,9.25376669010959
72793,Pfullingen,72793,48.463561417696575,9.225039204660234
64319,Pfungstadt,64319,49.80298651563052,8.591415332401606
76661,Philippsburg,76661,49.22676870107205,8.441648759087508
25421,Pinneberg,25421,53.65176418934724,9.789861482091725
66953–66955,Pirmasens,66953,49.20411433382353,7.610133515424837
01796,Pirna,01796,50.958809213227234,13.945645064376054
24306,Plön,24306,54.16240947027286,10.42375160976544
94447,Plattling,94447,48.78078385405405,12.874765857357357
19395,Plau am See,19395,53.44736101621984,12.25487947660858
99338,Plaue,99338,50.76754613789682,10.895968235019842
"08523, 08525, 08527, 08529, 08541, 08547Vorlage:Infobox Gemeinde in Deutschland/Wartung/PLZ enthält Text",Plauen,08523,50.49513882512387,12.120121011483532
58840,Plettenberg,58840,51.21243671478842,7.862989541039346
92714,Pleystein,92714,49.64373046188119,12.415448587623763
73207,Plochingen,73207,48.71249494482387,9.424289717325665
"09509, 09514Vorlage:Infobox Gemeinde in Deutschland/Wartung/PLZ enthält Text Vorlage:Infobox Verwaltungseinheit in Deutschland/Wartung/PLZ falsch",Pockau-Lengefeld,09509,50.70572764916256,13.236897294679803
94060,Pocking,94060,48.40112798437293,13.331477832448574
35415,Pohlheim,35415,50.52515873056951,8.730006496247906
56751,Polch,56751,50.298000189166665,7.311098033472222
32457,Porta Westfalica,32457,52.23055903535545,8.94536417413902
14467–14482,Potsdam,14467,52.40171212608043,13.060617157052821
91278,Pottenstein,91278,49.760858265174576,11.411222289525515
54595,Prüm,54595,50.21134076142491,6.42017494801027
24211,Preetz,24211,54.232652143291475,10.279673112343026
14727,Premnitz,14727,52.537637004499814,12.34370300535515
17291,Prenzlau,17291,53.31310649833113,13.8769738585922
92690,Pressath,92690,49.764220119540234,11.945470585057471
32361,Preußisch Oldendorf,32361,52.30312160821091,8.505878077138258
97357,Prichsenstadt,97357,49.81994619469388,10.352063681632654
16928,Pritzwalk,16928,53.13566644044553,12.135944036909871
82178,Puchheim,82178,48.17093434930989,11.35441771609528
50259,Pulheim,50259,50.996349609890494,6.791860637990941
01896,Pulsnitz,01896,51.185652985138134,14.01088653382026
18581,Putbus,18581,54.34932082111111,13.482033502098766
16949,Putlitz,16949,53.24213995895691,12.051435130612246
49610,Quakenbrück,49610,52.67727600884231,7.955084179341318
"06484, 06485",Quedlinburg,06484,51.79360056171719,11.15100696206208
"06268,06642 (Zuckerfabrik Vitzenburg)Vorlage:Infobox Gemeinde in Deutschland/Wartung/PLZ enthält Text",Querfurt,06268,51.35800763834254,11.614583112533545
25451,Quickborn,25451,53.736675129936,9.927937042830054
01734,Rabenau,01734,50.95775964336783,13.654423945625588
01454,Radeberg,01454,51.120151801516236,13.911746393292901
01445,Radebeul,01445,51.11060917165183,13.649056193634499
01468–01471,Radeburg,01468,51.14255309012392,13.677070301239205
42477,Radevormwald,42477,51.20579005742724,7.346080865631126
78315,Radolfzell am Bodensee,78315,47.752073815834954,8.972296498341233
"06779, 06800",Raguhn-Jeßnitz,06779,51.720202770542635,12.26276648139535
32369,Rahden,32369,52.44257851986935,8.621812440010887
86641,Rain,86641,48.67611875050215,10.933513415351507
"66877, 66851",Ramstein-Miesenbach,66877,49.449774717927255,7.554693261836028
07389,Ranis,07389,50.65431625375348,11.579975280259498
56235,Ransbach-Baumbach,56235,50.46518646319747,7.727507497348635
76437,Rastatt,76437,48.858946319803664,8.200164057714217
99636,Rastenberg,99636,51.18399962405822,11.403368926969177
14712,Rathenow,14712,52.60969971754316,12.337493184116152
40878–40885,Ratingen,40878,51.2940493666821,6.849294865223432
23909,Ratzeburg,23909,53.69490997281481,10.770094834592593
69231,Rauenberg,69231,49.26618409898256,8.69786729207849
65479,Raunheim,65479,50.009971600432465,8.452681133599468
35282,Rauschenberg,35282,50.903225211299436,8.909651358003767
88212–88214,Ravensburg,88212,47.784642773184586,9.620577200770791
74747,Ravenstein,74747,49.40715797451362,9.535719488764592
"45657, 45659, 45661, 45663, 45665",Recklinghausen,45657,51.618407488293606,7.193216299451593
46459,Rees,46459,51.77225794786277,6.4209514727362205
94209,Regen,94209,48.97031007369614,13.12597793786848
93047–93059,Regensburg,93047,49.01807222593939,12.095934719676768
04565,Regis-Breitingen,04565,51.08931356659065,12.405844070353478
95111,Rehau,95111,50.250581395665634,12.02527932755418
31547,Rehburg-Loccum,31547,52.451979021701796,9.188670833333333
19217,Rehna,19217,53.77191072847966,10.99171050264097
61203,Reichelsheim (Wetterau),61203,50.35585970985023,8.86149297828341
"02894 (Reichenbach/O.L., Sohland)Vorlage:Infobox Gemeinde in Deutschland/Wartung/PLZ enthält Text",Reichenbach/O.L.,02894,51.15399171735722,14.77760724143337
"08468,08491 (Jägerhaus),08499 (Mylau, Obermylau)Vorlage:Infobox Gemeinde in Deutschland/Wartung/PLZ enthält Text",Reichenbach im Vogtland,08468,50.62628127384511,12.313149016394927
21465,Reinbek,21465,53.52313503221727,10.247862542247448
"64354,64395 (Hundertmorgen)Vorlage:Infobox Gemeinde in Deutschland/Wartung/PLZ enthält Text",Reinheim,64354,49.832934801209056,8.826691857287315
53424,Remagen,53424,50.587736382719775,7.224293225507946
"42853–42859, 42897, 42899",Remscheid,42853,51.18307218378966,7.183025175749674
"71686, 70378",Remseck am Neckar,71686,48.87547691004933,9.265309977891468
77871,Renchen,77871,48.58393484449761,8.0205672342246
24768,Rendsburg,24768,54.30232721064336,9.653763764257347
56477,Rennerod,56477,50.61592576882043,8.067288858302028
71272,Renningen,71272,48.77232291971239,8.924362860199114
18230,Rerik,18230,54.100386420043385,11.651631991670282
27336,Rethem (Aller),27336,52.78160230540185,9.375250954150196
72760–72770,Reutlingen,72760,48.510490983807266,9.204638650631912
33378,Rheda-Wiedenbrück,33378,51.84234142445421,8.30175120818678
46414,Rhede,46414,51.83680490951557,6.698770037433155
77866,Rheinau,77866,48.65970295460875,7.927724663770537
55494,Rheinböllen,55494,50.005556520316205,7.659458296284584
53359,Rheinbach,53359,50.620284308537315,6.950539339307463
47495,Rheinberg,47495,51.54978048927043,6.600581552503209
"48429, 48431, 48432",Rheine,48429,52.286795301586416,7.458853471422232
79618,Rheinfelden (Baden),79618,47.56946942458351,7.779131182785134
"16818 (Basdorf, Braunsberg),16831 (Großzerlang, Heinrichsdorf, Kleinzerlang, Linow, Rheinsberg, Schwanow, Zechlinerhütte, Zechow, Zühlen),16835 (Dierberg),16837 (Alt Lutterow, Dorf Zechlin, Flecken Zechlin, Kagar, Luhme, Neu Lutterow, Wallitz)Vorlage:Infobox Gemeinde in Deutschland/Wartung/PLZ enthält Text",Rheinsberg,16818,52.89669329286685,12.845160199048912
76287,Rheinstetten,76287,48.96736220664343,8.301487414952547
17207,Röbel/Müritz,17207,53.38244664494855,12.612144413517305
96472,Rödental,96472,50.29529059141962,11.043102489852977
63322,Rödermark,63322,49.98006915581396,8.803313735007421
98630,Römhild,98630,50.38101782390501,10.598296707598944
51503,Rösrath,51503,50.90819845499539,7.182146100805709
04571,Rötha,04571,51.199054797705884,12.445653296411765
90552,Röthenbach an der Pegnitz,90552,49.48465612675217,11.248745955153458
97285,Röttingen,97285,49.516993293333336,9.976332418333334
92444,Rötz,92444,49.3483947425979,12.525444386055396
65385,Rüdesheim am Rhein,65385,49.9934822122807,7.9137765356963845
65428,Rüsselsheim am Main,65428,49.981984057840684,8.42723039493988
59602,Rüthen,59602,51.50403012931168,8.429182397576696
56321,Rhens,56321,50.279277510139856,7.614401613986014
14728,Rhinow,14728,52.74289371181102,12.387088512598424
18311,Ribnitz-Damgarten,18311,54.246345715936336,12.432304936494441
18461,Richtenberg,18461,54.188494853902434,12.879930378455285
93339,Riedenburg,93339,48.96826196068376,11.671946675641026
88499,Riedlingen,88499,48.15891898011696,9.476040929239767
64560,Riedstadt,64560,49.83860337447718,8.482653420042741
97794,Rieneck,97794,50.09482201212121,9.646458953030303
"01587, 01589, 01591",Riesa,01587,51.303877551655624,13.276198145514751
33397,Rietberg,33397,51.80628024623038,8.425943028377183
31737,Rinteln,31737,52.18190200947168,9.095063634697764
06571,Roßleben-Wiehe,06571,51.296072976569675,11.39984265222052
04741,Roßwein,04741,51.07412025402644,13.18299530018029
09306,Rochlitz,09306,51.02815515017898,12.830718424959322
67806,Rockenhausen,67806,49.6287925178911,7.812220332584269
66976,Rodalben,66976,49.2405503703125,7.63990904375
31552,Rodenberg,31552,52.30921083012959,9.344836931389489
08228,Rodewisch,08228,50.532353390026955,12.408278058814016
63110,Rodgau,63110,50.02155753609058,8.881608752943981
93426,Roding,93426,49.206654340030916,12.504405239464194
36329,Romrod,36329,50.7098240918239,9.218162201572328
07580,Ronneburg,07580,50.845059042834706,12.206439524813506
30952,Ronnenberg,30952,52.31662778549492,9.651195348429011
61191,Rosbach vor der Höhe,61191,50.286888155255326,8.696919492860683
72348,Rosenfeld,72348,48.285515304333195,8.718200504543542
"83022, 83024, 83026",Rosenheim,83022,47.85590872879563,12.12738954107813
35119,Rosenthal,35119,50.977409263243246,8.844587927567567
"18055, 18057, 18059,18069,18106, 18107, 18109,18119,18146, 18147,18181, 18182Vorlage:Infobox Gemeinde in Deutschland/Wartung/PLZ enthält Text",Rostock,18055,54.082625131123784,12.156153980765472
27356,Rotenburg (Wümme),27356,53.1105237996156,9.407933736243821
36199,Rotenburg an der Fulda,36199,50.9952362874431,9.732379130614566
91154,Roth,91154,49.238839303724745,11.09958693308081
02929,Rothenburg/O.L.,02929,51.342751621170905,14.95277124234181
91541,Rothenburg ob der Tauber,91541,49.377335730640915,10.18188938955224
97851,Rothenfels,97851,49.892743969696966,9.58688141969697
72108,Rottenburg am Neckar,72108,48.48010838124507,8.910105923070295
84056,Rottenburg a.d.Laaber,84056,48.71973022468085,12.049301536170212
"78628, 78652",Rottweil,78628,48.16219406492372,8.636312613997926
07407,Rudolstadt,07407,50.71536603908549,11.339949590735586
99842,Ruhla,99842,50.90153051086498,10.380523980116033
01945,Ruhland,01945,51.42954136045703,13.872276855961251
65594,Runkel,65594,50.41395287098366,8.148489164076473
71277,Rutesheim,71277,48.8077589328905,8.946752530072464
07929,Saalburg-Ebersdorf,07929,50.49598161108491,11.690535289150942
07318,Saalfeld/Saale,07318,50.632159623619934,11.338821715730338
66111–66133,Saarbrücken,66111,49.235703092900124,6.997702379863618
54439,Saarburg,54439,49.59963037239138,6.523852872117687
66740,Saarlouis,66740,49.31948270632522,6.753033941518053
31553,Sachsenhagen,31553,52.39620342045264,9.273977726823135
74343,Sachsenheim,74343,48.97858048995657,9.043643470738328
"38226, 38228, 38229,38239, 38259Vorlage:Infobox Gemeinde in Deutschland/Wartung/PLZ enthält Text",Salzgitter,38226,52.15957849613993,10.331090904738929
33154,Salzkotten,33154,51.67492401899746,8.602827719873096
29410,Salzwedel,29410,52.847348767171276,11.138072761485654
39524,Sandau (Elbe),39524,52.66911990602951,12.066936621456062
"06792 (Sandersdorf und Zscherndorf),06794 (Glebitzsch),06796 (Brehna),06809 (Petersroda, Roitzsch)Vorlage:Infobox Gemeinde in Deutschland/Wartung/PLZ enthält Text",Sandersdorf-Brehna,06792,51.62213989703226,12.264991148838709
06526,Sangerhausen,06526,51.47883150165924,11.305192395305545
53757,Sankt Augustin,53757,50.77384728457099,7.187049515879257
56329,Sankt Goar,56329,50.1504971742,7.7067581515
56346,Sankt Goarshausen,56346,50.16782763376069,7.706096707122508
31157,Sarstedt,31157,52.23672008857645,9.859721763356767
48336,Sassenberg,48336,52.0066769707561,8.041847181975609
09619,Sayda,09619,50.762909054467,13.413440759543148
96528,Schalkau,96528,50.39676624779537,11.058321545675524
95197,Schauenstein,95197,50.27603398585366,11.73571431609756
96110,Scheßlitz,96110,49.97618478121547,11.03928272481938
72516,Scheer,72516,48.077880305233855,9.306707858240534
09481,Scheibenberg,09481,50.56170988039216,12.894756172156862
91443,Scheinfeld,91443,49.66825603727273,10.461825188636364
89601,Schelklingen,89601,48.37291515012377,9.674476440470297
22869,Schenefeld,22869,53.60325305642318,9.839440953400503
32816,Schieder-Schwalenberg,32816,51.89909426776978,9.157768611618705
67105,Schifferstadt,67105,49.38269550036408,8.377339639199029
91583,Schillingsfürst,91583,49.29247024078947,10.244359576315789
"77761, 78733",Schiltach,77761,48.28908265406071,8.343198447251845
02681,Schirgiswalde-Kirschau,02681,51.09061084582346,14.412456142920616
07619,Schkölen,07619,51.02676510966851,11.822748342265193
04435,Schkeuditz,04435,51.40060718091362,12.23692086549073
36381,Schlüchtern,36381,50.35379579716897,9.539177912683906
96132,Schlüsselfeld,96132,49.76506337045822,10.626823366684636
53937,Schleiden,53937,50.54477099274794,6.468060985711486
07907,Schleiz,07907,50.59890552310486,11.815527950295053
24837,Schleswig,24837,54.51809821827208,9.553954324351158
09487,Schlettau,09487,50.56171656331126,12.953511279735098
98553,Schleusingen,98553,50.52166334491607,10.763263252853717
04936,Schlieben,04936,51.73161368029046,13.423632091908715
36110,Schlitz,36110,50.67602372671784,9.561885429239766
33758,Schloß Holte-Stukenbrock,33758,51.90254521405679,8.62655958304101
98574,Schmalkalden,98574,50.72039849559642,10.451883651318655
99610,Sömmerda,99610,51.16175177986955,11.122733915069727
72355,Schömberg,72355,48.19890678205608,8.754303241246106
69250,Schönau,69250,49.44492349988194,8.808453950413222
79677,Schönau im Schwarzwald,79677,47.78595313106485,7.8906881280224175
23923,Schönberg,23923,53.84736338461281,10.83757351940999
"39217, 39218",Schönebeck (Elbe),39217,52.044924095874265,11.830031744204321
08261,Schöneck/Vogtl.,08261,50.39540316268116,12.325299779710145
04916,Schönewalde,04916,51.68760570161865,13.220458999384915
38364,Schöningen,38364,52.14010269666395,10.962660613873068
92539,Schönsee,92539,49.51033564219925,12.543524184680452
95173,Schönwald,95173,50.20138525980392,12.09036188235294
"38170, 38154",Schöppenstedt,38170,52.13918130031152,10.777279263187953
48465,Schüttorf,48465,52.31637213292298,7.219439686710858
04626,Schmölln,04626,50.89433693726173,12.333499382514663
57392,Schmallenberg,57392,51.17572195700342,8.30354464707821
29493,Schnackenburg,29493,53.0359434,11.551051655504587
92253,Schnaittenbach,92253,49.54231026173077,12.016633537115384
08289,Schneeberg,08289,50.592746914081374,12.6343252306103
29640,Schneverdingen,29640,53.12115902159941,9.78671730509171
86956,Schongau,86956,47.81160960600307,10.8905859962634
79650,Schopfheim,79650,47.65463609177907,7.830452385698994
73614,Schorndorf,73614,48.80851028468441,9.528788233007036
26419,Schortens,26419,53.5414977686309,7.9529096867634115
63679,Schotten,63679,50.49472330251613,9.146073896645161
"78144, 78713",Schramberg,78144,48.193536396599825,8.348987283435049
06279,Schraplau,06279,51.43491746320583,11.62134369125683
69198,Schriesheim,69198,49.47596787274143,8.670374519314642
86529,Schrobenhausen,86529,48.56261451590628,11.254689022194821
74575,Schrozberg,74575,49.345552909529275,9.98871983794489
"73525, 73527, 73529,73072,73550, 73553Vorlage:Infobox Gemeinde in Deutschland/Wartung/PLZ enthält Text",Schwäbisch Gmünd,73525,48.79585236777963,9.79811878626878
74523,Schwäbisch Hall,74523,49.10907322099617,9.749681543132185
18258,Schwaan,18258,53.937577279751935,12.10321992031512
91126,Schwabach,91126,49.333583328749256,11.023252940239084
86830,Schwabmünchen,86830,48.183763206056234,10.744673104902668
74193,Schwaigern,74193,49.14310231749137,9.046522588607594
65824,Schwalbach am Taunus,65824,50.152186129230266,8.531925977655083
34613,Schwalmstadt,34613,50.91331820409706,9.203123570763724
92421,Schwandorf,92421,49.326689469016785,12.109445691127098
"39397 (Nienhagen, Schwanebeck)Vorlage:Infobox Gemeinde in Deutschland/Wartung/PLZ enthält Text",Schwanebeck,39397,51.95408167097868,11.173557989728682
98744,Schwarzatal,98744,50.58751663573913,11.146163472608697
95131,Schwarzenbach am Wald,95131,50.27909271809045,11.62940886683417
"95126, 95158",Schwarzenbach an der Saale,95126,50.20824544423408,11.922445414457831
21493,Schwarzenbek,21493,53.51502585231846,10.488817672440945
08340,Schwarzenberg/Erzgeb.,08340,50.535447020408746,12.783497537996546
34639,Schwarzenborn,34639,50.91146650100756,9.449006761964736
01987,Schwarzheide,01987,51.47841715566449,13.856735239651416
16303,Schwedt/Oder,16303,53.077167764166866,14.234643171972108
54338,Schweich,54338,49.82324810097088,6.747448568805402
"97421, 97422, 97424",Schweinfurt,97421,50.04635468312303,10.224920202365931
58332,Schwelm,58332,51.28923012091627,7.292013035086888
"24222, 24223",Schwentinental,24222,54.30622044849973,10.209004081069285
"19053, 19055, 19057, 19059, 19061,19062, 19063Vorlage:Infobox Gemeinde in Deutschland/Wartung/PLZ enthält Text",Schwerin,19053,53.62785984860558,11.405544363574274
58239,Schwerte,58239,51.43837341815395,7.5693073505823625
68723,Schwetzingen,68723,49.386999069580284,8.578899856744961
96145,Seßlach,96145,50.19517062164557,10.824534045822784
39615,Seehausen (Altmark),39615,52.90208714738486,11.770241220869112
"06449 (Friedrichsaue, Schadeleben),06464 (Frose),06466 (Gatersleben),06467 (Hoym),06469 (Nachterstedt)Vorlage:Infobox Gemeinde in Deutschland/Wartung/PLZ enthält Text",Seeland,06449,51.75801762518223,11.47540338437902
15306,Seelow,15306,52.492190822507126,14.379863325
30926,Seelze,30926,52.392342606318024,9.599918020546854
38723,Seesen,38723,51.88268069021114,10.15473983397313
31319,Sehnde,31319,52.32191185939767,9.957540739657768
02782,Seifhennersdorf,02782,50.936114479124086,14.606703000364963
95100,Selb,95100,50.16320476657519,12.134688152524697
95152,Selbitz,95152,50.322655758885944,11.749686068700266
63500,Seligenstadt,63500,50.041937884745764,8.971270411380145
59379,Selm,59379,51.68485012401787,7.471827198686112
56242,Selters (Westerwald),56242,50.519749488688944,7.740682644473007
89250,Senden,89250,48.3228506120603,10.058741127889446
48324,Sendenhorst,48324,51.851313511005465,7.799380934204898
"01945 (Peickwitz)01968 (Brieske, Großkoschen, Niemtsch, Sedlitz, Senftenberg)01996 (Hosena)Vorlage:Infobox Gemeinde in Deutschland/Wartung/PLZ enthält Text",Senftenberg,01945,51.42954136045703,13.872276855961251
53721,Siegburg,53721,50.80245360857285,7.224044003647175
57072–57080,Siegen,57072,50.878519257038505,8.006480295830164
72488,Sigmaringen,72488,48.08654974008821,9.208443479781803
84359,Simbach am Inn,84359,48.27206861308642,13.024040184444443
55469,Simmern/Hunsrück,55469,49.978711897764704,7.536846247647059
"71063, 71065, 71067, 71069",Sindelfingen,71063,48.71196735071315,8.998112216283676
78224,Singen (Hohentwiel),78224,47.76179975963915,8.85383332784035
74889,Sinsheim,74889,49.236970978453314,8.887669959929848
53489,Sinzig,53489,50.54143970756602,7.2464225884725195
59494,Soest,59494,51.56538167381671,8.098098031306588
"42651, 42653, 42655, 42657, 42659,42697, 42699, 42719Vorlage:Infobox Gemeinde in Deutschland/Wartung/PLZ enthält Text",Solingen,42651,51.173985086191756,7.095685233008051
35606,Solms,35606,50.54399038405667,8.41397668572071
29614,Soltau,29614,52.98988899555252,9.846632207953855
99706,Sondershausen,99706,51.36800769995239,10.86901068481314
96515,Sonneberg,96515,50.37021290821681,11.182160107886881
03249,Sonnewalde,03249,51.69475668993506,13.646736375324675
87527,Sonthofen,87527,47.51187492165338,10.281122716281999
36205,Sontra,36205,51.06985454473406,9.944089924163439
78549,Spaichingen,78549,48.076018333979505,8.734948323123788
91174,Spalt,91174,49.17593171818182,10.928670428877005
34286,Spangenberg,34286,51.115875362024354,9.659356075038051
54662,Speicher,54662,49.93709884444444,6.6466935
32139,Spenge,32139,52.13956157748578,8.481247016454207
67346,Speyer,67346,49.326246485668754,8.428939651041548
03130,Spremberg,03130,51.5751642858655,14.417871771795536
31832,Springe,31832,52.2030031163304,9.600827093585101
45549,Sprockhövel,45549,51.347597839924106,7.258218425830935
"21680, 21682–21684",Stade,21680,53.58803672070747,9.472756900934023
35260,Stadtallendorf,35260,50.83244364115406,9.010424257049536
"73079, 73054",Süßen,73079,48.67899307356186,9.754668821946414
"06369 (Glauzig, Görzig, Großbadegast, Libehna, Prosigk, Radegast, Reupzig, Riesdorf, Trebbichau, Weißandt-Gölzau, Zehbitz),06386 (Fraßdorf, Friedrichsdorf, Hinsdorf, Meilendorf, Quellendorf, Scheuder, Storkau),06388 (Edderitz, Gröbzig, Maasdorf, Piethen, Wieskau)Vorlage:Infobox Gemeinde in Deutschland/Wartung/PLZ enthält Text",Südliches Anhalt,06369,51.69773904381675,12.026683844322653
06667,Stößen,06667,51.19659381499717,11.966044269043577
79780,Stühlingen,79780,47.765325388698955,8.44520411519468
"79837, 79875",St. Blasien,79837,47.758573915091866,8.122570594553807
78112,St. Georgen im Schwarzwald,78112,48.12860187941707,8.335691695192308
66386,St. Ingbert,66386,49.275582851006455,7.128053590557775
66606,St. Wendel,66606,49.46807694066559,7.167247684476651
"39418, 39443, 39446",Staßfurt,39418,51.84949653267974,11.582741803267973
01829,Stadt Wehlen,01829,50.95771125830564,14.023512569269103
86391,Stadtbergen,86391,48.36035507494396,10.840795591307597
31655,Stadthagen,31655,52.31824649588873,9.204528315156473
99326,Stadtilm,99326,50.76571856262626,11.083728089646465
48703,Stadtlohn,48703,51.99281383414097,6.918011546050975
37627,Stadtoldendorf,37627,51.87796019321941,9.629414922932746
97909,Stadtprozelten,97909,49.78546457091346,9.409731687259615
07646,Stadtroda,07646,50.86110370814361,11.746103942841506
95346,Stadtsteinach,95346,50.165206620654395,11.502609868507157
82319,Starnberg,82319,48.00326177665544,11.343804197194164
79219,Staufen im Breisgau,79219,47.879103024438066,7.7243927987087515
35460,Staufenberg,35460,50.66022011934085,8.748921123359352
17153,Stavenhagen,17153,53.68559631949194,12.909651583585735
90547,Stein,90547,49.40431910021954,11.0095134435236
96523,Steinach,96523,50.43146773345481,11.15872503658892
36396,Steinau an der Straße,36396,50.32807800012117,9.454237865872374
98587,Steinbach-Hallenberg,98587,50.693647957741014,10.569556968984234
61449,Steinbach (Taunus),61449,50.16767307423443,8.574447701478354
48565,Steinfurt,48565,52.13188532767034,7.368010093574914
32839,Steinheim,32839,51.85799543294144,9.072742059981913
71711,Steinheim an der Murr,71711,48.96932189928401,9.266484765944558
39576,Stendal,39576,52.605067146927524,11.845329132607233
19406,Sternberg,19406,53.69231114805794,11.875974919782752
78333,Stockach,78333,47.85240865025005,9.00701902804561
"52222, 52223, 52224",Stolberg (Rheinland),52222,50.779346638914916,6.22811448852459
09366,Stollberg/Erzgeb.,09366,50.70267600386474,12.769449415813204
01833,Stolpen,01833,51.039507232517174,14.051444728217378
15859,Storkow (Mark),15859,52.245028908738526,13.927375368922135
47638,Straelen,47638,51.43313288048959,6.26005604459262
"18435, 18437, 18439",Stralsund,18435,54.32669675030284,13.069346809690787
17335,Strasburg (Uckermark),17335,53.515082151271535,13.741893990812141
94315,Straubing,94315,48.87903112605674,12.587739101108397
15344,Strausberg,15344,52.57185219339835,13.883287892929483
01616,Strehla,01616,51.353193224213285,13.22797315708042
55442,Stromberg,55442,49.94400607520759,7.771315166548042
76297,Stutensee,76297,49.08472953111538,8.481769743833175
70173–70619,Stuttgart,70173,48.77784873637176,9.178385981501341
98527–98529,Suhl,98527,50.606439045095584,10.699591966123473
27232,Sulingen,27232,52.6820413424055,8.803069603367698
"72172, 72160, 72186",Sulz am Neckar,72172,48.36514586023821,8.646374725171782
92237,Sulzbach-Rosenberg,92237,49.49783776175808,11.751310743951915
66280,Sulzbach/Saar,66280,49.3001309857478,7.065215007605083
79295,Sulzburg,79295,47.84153801925078,7.698598219771072
"59846, 59831",Sundern (Sauerland),59846,51.32442109527762,7.995682455647777
28857,Syke,28857,52.929955932651964,8.829871925981712
84513,Töging am Inn,84513,48.262004827134554,12.582081266428252
47918,Tönisvorst,47918,51.31706661083259,6.477125231859892
25832,Tönning,25832,54.315816418032014,8.931341730037666
99897,Tambach-Dietharz,99897,50.79137798974359,10.618034750641026
71732,Tamm,71732,48.923579078892615,9.131480924798657
39517,Tangerhütte,39517,52.41516614913117,11.797995608492153
39590,Tangermünde,39590,52.54325467704348,11.965887948173913
36142,Tann (Rhön),36142,50.636877536538464,10.01120528076923
07922,Tanna,07922,50.497099526130654,11.884679709045226
97941,Tauberbischofsheim,97941,49.624421984555916,9.658215347981447
04425,Taucha,04425,51.383768203023386,12.496758677980605
65232,Taunusstein,65232,50.15105161855109,8.166618922194305
49545,Tecklenburg,49545,52.22311733185185,7.813184366498317
83684,Tegernsee,83684,47.709145779761904,11.760252687301586
48291,Telgte,48291,51.989913298767576,7.783333904408279
14513,Teltow,14513,52.394031652980594,13.277380811363953
17268,Templin,17268,53.135305818139024,13.549899754458597
78250,Tengen,78250,47.81290623679073,8.676257335448444
18195,Tessin,18195,54.02677007425693,12.468549259697733
17166,Teterow,17166,53.77131761806798,12.573577801610018
88069,Tettnang,88069,47.664426071790416,9.600193140278124
93158,Teublitz,93158,49.22988881496704,12.087770425164791
06682,Teuchern,06682,51.12310893556701,12.005356811855671
15755,Teupitz,15755,52.13599780456731,13.618661593910256
96358,Teuschnitz,96358,50.40424755455476,11.3918450160696
06502,Thale,06502,51.75072712585358,11.041437637114248
09380,Thalheim/Erzgeb.,09380,50.70063884260028,12.847716227593361
86470,Thannhausen,86470,48.27939096100278,10.468768565849583
01737,Tharandt,01737,50.99304192855275,13.562918136224935
98660,Themar,98660,50.5001417706383,10.62192309822695
09419,Thum,09419,50.669515885624996,12.942747105625001
95643,Tirschenreuth,95643,49.88110443489209,12.337114096882495
79822,Titisee-Neustadt,79822,47.91571656956522,8.189574804923273
84529,Tittmoning,84529,48.06394986923077,12.756920634508548
79674,Todtnau,79674,47.83196760473146,7.945482687084399
"04860, 04861, 04889",Torgau,04860,51.558612810589715,12.972677724617315
"17358,17379 (Heinrichsruh)Vorlage:Infobox Gemeinde in Deutschland/Wartung/PLZ enthält Text",Torgelow,17358,53.63104353160821,14.015138671642429
25436,Tornesch,25436,53.699319364733896,9.701139239859945
56841,Traben-Trarbach,56841,49.95289480154242,7.114559854498714
"83301, 83368, 83371, 83374Vorlage:Infobox Gemeinde in Deutschland/Wartung/PLZ enthält Text",Traunreut,83301,47.96144366704025,12.593874383851247
83278,Traunstein,83278,47.87007372749896,12.634299912277063
14959,Trebbin,14959,52.22730226748311,13.20528275
04687,Trebsen/Mulde,04687,51.28507217659864,12.71984844829932
99830,Treffurt,99830,51.10625535192371,10.211049667477804
34388,Trendelburg,34388,51.57825971057692,9.44544330096154
91757,Treuchtlingen,91757,48.9604536350065,10.896003199089726
52531,Übach-Palenberg,52531,50.92257691763573,6.112705629957643
88662,Überlingen,88662,47.775012713996624,9.170374717166949
"72070, 72072, 72074, 72076",Tübingen,72070,48.5205823100831,9.02510500603878
08233,Treuen,08233,50.54275837922423,12.310621853294368
14929,Treuenbrietzen,14929,52.08637959590164,12.883873165983607
78098,Triberg im Schwarzwald,78098,48.13123856731092,8.239470495462186
18465,Tribsees,18465,54.095147364563104,12.76093214550971
"54290, 54292, 54293, 54294, 54295, 54296",Trier,54290,49.75111443236667,6.636405040766667
07819,Triptis,07819,50.73338505157385,11.855521623486682
72818,Trochtelfingen,72818,48.303759854802266,9.24802630078227
"53840, 53842, 53844",Troisdorf,53840,50.81089213742657,7.162077395793064
78647,Trossingen,78647,48.072333765318476,8.636143435989345
83308,Trostberg,83308,48.02896775996732,12.557226871405229
78532,Tuttlingen,78532,47.98474632131403,8.815792712019306
27239,Twistringen,27239,52.795784821262046,8.629170286726763
"04924 (Wahrenbrück (mit Zinsdorf), Beiersdorf, Beutersitz, Bönitz, Domsdorf, Kauxdorf, Marxdorf, Prestewitz, Rothstein, Wildgrube, Winkel),04938 (Uebigau mit Bomsdorf und München, Drasdo, Langennaundorf, Wiederau),04895 (Bahnsdorf, Neudeck, Saxdorf)Vorlage:Infobox Gemeinde in Deutschland/Wartung/PLZ enthält Text",Uebigau-Wahrenbrück,04924,51.524713691758826,13.392621794839389
17373,Ueckermünde,17373,53.73524097512553,14.062086422132099
29525,Uelzen,29525,52.96532701944095,10.561783143137749
25436,Uetersen,25436,53.699319364733896,9.701139239859945
97215,Uffenheim,97215,49.54079111512287,10.22534508100189
73066,Uhingen,73066,48.71086870123208,9.578112718129242
89073–89081,Ulm,89073,48.40177372662361,9.995346679727305
56766,Ulmen,56766,50.20791675816803,6.979890644399067
35327,Ulrichstein,35327,50.57781234930556,9.183178943181819
98663,Ummerstadt,98663,50.27646402249341,10.695554216952507
53572,Unkel,53572,50.60040952426195,7.226662041170156
"59423, 59425, 59427",Unna,59423,51.530659282048596,7.68542741359447
85716,Unterschleißheim,85716,48.27690103065442,11.57590012776502
17406,Usedom,17406,53.8873303693609,13.920096387218047
61250,Usingen,61250,50.342490698027,8.536509908047767
37170,Uslar,37170,51.657523220884286,9.657065294355599
78147,Vöhrenbach,78147,48.03595154382658,8.304605462299717
89269,Vöhringen,89269,48.28243198452915,10.08246715986547
66333,Völklingen,66333,49.240462210292684,6.83724707767265
36404,Vacha,36404,50.80680964408714,10.037319899896266
71665,Vaihingen an der Enz,71665,48.941943752193396,8.96271311831368
56179,Vallendar,56179,50.399208683932855,7.6172617383693035
26316,Varel,26316,53.39196959573499,8.1221713147412
49377,Vechta,49377,52.74409264132486,8.280040268361256
"42549, 42551, 42553, 42555",Velbert,42549,51.335863575061076,7.025230711624593
92355,Velburg,92355,49.24312891375,11.65869667125
91235,Velden,91235,49.60597638382353,11.514272521078432
46342,Velen,46342,51.89178748344456,6.955206469122176
74541,Vellberg,74541,49.098117611853716,9.8888786925599
34246,Vellmar,34246,51.35801531916219,9.464572193770138
16727,Velten,16727,52.69474054174415,13.143515508846443
27283,Verden (Aller),27283,52.92898175897468,9.242175366459781
72519,Veringenstadt,72519,48.16864873023256,9.201545541860465
33415,Verl,33415,51.877014827223505,8.509924978814132
33775,Versmold,33775,52.03935893676674,8.15760567305038
03226,Vetschau/Spreewald,03226,51.781534587991175,14.07022741130243
94234,Viechtach,94234,49.08043910458515,12.890282187336245
68519,Viernheim,68519,49.540909328750004,8.57660499046875
"41747, 41748, 41749, 41751",Viersen,41747,51.25383994998993,6.389916421743507
78048–78056,Villingen-Schwenningen,78048,48.067006198046094,8.457936195240482
84137,Vilsbiburg,84137,48.44570601878231,12.349081913612867
92249,Vilseck,92249,49.610594245871184,11.796244946160199
94474,Vilshofen an der Donau,94474,48.627182936770076,13.16984356660584
27374,Visselhövede,27374,52.98873597637032,9.57423689388369
32602,Vlotho,32602,52.15920700313461,8.849308552233778
46562,Voerde (Niederrhein),46562,51.60667293133915,6.666946902852884
79235,Vogtsburg im Kaiserstuhl,79235,48.091260437317075,7.630558162195122
85088,Vohburg an der Donau,85088,48.764304489726776,11.612091602331512
92648,Vohenstrauß,92648,49.6224684628269,12.32714008343711
97332,Volkach,97332,49.86979411742243,10.217657492601433
34471,Volkmarsen,34471,51.40219324654283,9.112188270381836
48691,Vreden,48691,52.04370380068464,6.818981626715162
63607,Wächtersbach,63607,50.264102603456536,9.295936585147158
67157,Wachenheim an der Weinstraße,67157,49.43831181260504,8.176262088515406
66687,Wadern,66687,49.53521587430544,6.8798136271542925
68753,Waghäusel,68753,49.23433525727663,8.525512203511509
23812,Wahlstedt,23812,53.95415751956793,10.213818464727877
"71332, 71334, 71336",Waiblingen,71332,48.82760540575098,9.310021609408151
74915,Waibstadt,74915,49.29681381687015,8.914362197669256
91344,Waischenfeld,91344,49.84201323128655,11.342320757894736
51545,Waldbröl,51545,50.87754272324911,7.619133539257249
"34513,34516 (Fürstental)Vorlage:Infobox Gemeinde in Deutschland/Wartung/PLZ enthält Text",Waldeck,34513,51.236311829581155,9.029451868390051
71111,Waldenbuch,71111,48.638005294271984,9.13826886910569
08396,Waldenburg,08396,50.88038522080713,12.591965224318658
"74638, 74545",Waldenburg,74638,49.18135564943946,9.637513499663678
95679,Waldershof,95679,49.97418570489691,12.065224702920963
04736,Waldheim,04736,51.07313471707456,13.021234290495162
37284,Waldkappel,37284,51.1445748054254,9.873238582614057
79183,Waldkirch,79183,48.095115183008105,7.961012357430202
94065,Waldkirchen,94065,48.73354594262094,13.603089797428048
84478,Waldkraiburg,84478,48.20751708783401,12.405415804181075
93449,Waldmünchen,93449,49.36598392551077,12.701711155604638
66914,Waldmohr,66914,49.387938822405275,7.3347970618341565
95652,Waldsassen,95652,50.00345434374034,12.30705305919629
79761,Waldshut-Tiengen,79761,47.63340489736795,8.238955507012895
"74731, 63928",Walldürn,74731,49.57509061170384,9.37274419466544
69190,Walldorf,69190,49.304540021733075,8.64502372800223
96346,Wallenfels,96346,50.27434790854342,11.486201811484593
"29664, 29699",Walsrode,29664,52.84797026176905,9.583174284589402
99880,Waltershausen,99880,50.92161228458549,10.56994739384715
45731,Waltrop,45731,51.61967488927838,7.396744152129263
37281,Wanfried,37281,51.17833934738617,10.15576312782462
88239,Wangen im Allgäu,88239,47.680715257062936,9.814166971841491
39164,Wanzleben-Börde,39164,52.084620418863096,11.40351069034225
34414,Warburg,34414,51.50280541295806,9.117519131169011
"06886, 06888, 06889",Wittenberg,06886,51.875859013970015,12.632324241987785
17192,Waren (Müritz),17192,53.51508123244606,12.685127416132286
48231,Warendorf,48231,51.94494623285392,7.970392079795529
19417,Warin,19417,53.799305633116354,11.710209121562245
59581,Warstein,59581,51.46310718095721,8.318882855213964
41849,Wassenberg,41849,51.105510538224046,6.156684927375726
83512,Wasserburg am Inn,83512,48.05663294176402,12.221062857535046
91717,Wassertrüdingen,91717,49.04479150945083,10.60545286743295
98634,Wasungen,98634,50.60708845188794,10.201446905237516
22880,Wedel,22880,53.5830812444553,9.709962598290181
26826,Weener,26826,53.16214845759889,7.343365550242887
41844,Wegberg,41844,51.13996644765384,6.263800824562021
"38828 (Rodersdorf, Wegeleben)Vorlage:Infobox Gemeinde in Deutschland/Wartung/PLZ enthält Text",Wegeleben,38828,51.888084017860464,11.179541349302326
79664,Wehr,79664,47.61814394903961,7.9089589369747895
02627,Weißenberg,02627,51.20439540767072,14.530513816931713
91781,Weißenburg in Bayern,91781,49.0207105955774,10.95903005012285
"06667, 06688",Weißenfels,06667,51.19659381499717,11.966044269043577
89264,Weißenhorn,89264,48.3065587125404,10.17377884738203
99631,Weißensee,99631,51.208926479812206,11.073500288262911
95163,Weißenstadt,95163,50.09840814833949,11.885735300959409
56575,Weißenthurm,56575,50.41478160510614,7.454390131153184
02943,Weißwasser/O.L.,02943,51.46066763633361,14.615613009620148
07570,Weida,07570,50.77842059964766,12.064444739782191
92637,Weiden in der Oberpfalz,92637,49.67748112636193,12.151907061239825
97990,Weikersheim,97990,49.473721695151134,9.902395216435767
79576,Weil am Rhein,79576,47.60147418627421,7.615768513075135
71263,Weil der Stadt,71263,48.75914419692249,8.858123800645897
35781,Weilburg,35781,50.48664798952845,8.282202257365855
73235,Weilheim an der Teck,73235,48.61438070110999,9.534253214093507
82362,Weilheim in Oberbayern,82362,47.84125413529538,11.142603471168664
"99423, 99425, 99427, 99428",Weimar,99423,50.982714320985224,11.3227737058867
88250,Weingarten,88250,47.8088497933693,9.637477544661722
69469,Weinheim,69469,49.54459383404702,8.665319461852784
74189,Weinsberg,74189,49.15395355012935,9.29591483388905
71384,Weinstadt,71384,48.80430867806809,9.380644585574029
96260,Weismain,96260,50.07052924001411,11.236939527170078
64331,Weiterstadt,64331,49.91064257239629,8.587293316926308
73642,Welzheim,73642,48.8746798979684,9.629668600677201
03119,Welzow,03119,51.57815238026214,14.17336873461835
86650,Wemding,86650,48.87554544437386,10.721620916969147
73240,Wendlingen am Neckar,73240,48.671862390454905,9.383080080567971
"39615,39539 (Neuwerben)Vorlage:Infobox Gemeinde in Deutschland/Wartung/PLZ enthält Text",Werben (Elbe),39615,52.90208714738486,11.770241220869112
08412,Werdau,08412,50.732765754531464,12.376405531480849
14542,Werder (Havel),14542,52.3846680499639,12.909931898447654
58791,Werdohl,58791,51.25049439849122,7.76354905810042
59457,Werl,59457,51.55518523910662,7.908234011477605
49757,Werlte,49757,52.8587411151751,7.698695230294607
42929,Wermelskirchen,42929,51.123677661294266,7.211683913207163
73249,Wernau (Neckar),73249,48.68921547433273,9.420061882120658
59368,Werne,59368,51.667477538144205,7.64067693568558
16356,Werneuchen,16356,52.58915814631282,13.584468805659935
"38855, 38875, 38879Vorlage:Infobox Gemeinde in Deutschland/Wartung/PLZ enthält Text",Wernigerode,38855,51.840268747406895,10.787009269787678
99837,Werra-Suhl-Tal,99837,50.92850341924358,10.079698134744268
97877,Wertheim,97877,49.755821770820525,9.509714697375266
33824,Werther (Westf.),33824,52.07956593700125,8.41567526867207
86637,Wertingen,86637,48.55608901163708,10.689151757001973
"46483, 46485, 46487",Wesel,46483,51.662908746374654,6.615349394258984
17255,Wesenberg,17255,53.27139588362218,12.973694561785097
25764,Wesselburen,25764,54.20916383317901,8.905873388117284
50389,Wesseling,50389,50.8159471745569,6.977962264394337
56457,Westerburg,56457,50.562182994728914,7.971166454919678
26655,Westerstede,26655,53.25756433902776,7.916469013119735
35083,Wetter (Hessen),35083,50.90772332805446,8.722464945324257
58300,Wetter (Ruhr),58300,51.37994779520192,7.368507979608157
06193,Wettin-Löbejün,06193,51.591378772991455,11.91075529409599
35576–35586,Wetzlar,35576,50.56602769781844,8.492056766678395
74259,Widdern,74259,49.32123530125786,9.421281343710692
51674,Wiehl,51674,50.95552459244795,7.529571659270666
"65183–65207,55246, 55252Vorlage:Infobox Gemeinde in Deutschland/Wartung/PLZ enthält Text",Wiesbaden,65183,50.08370554728331,8.23640349068564
73349,Wiesensteig,73349,48.564070957917885,9.626686403958946
69168,Wiesloch,69168,49.29231730312614,8.694269392984369
26639,Wiesmoor,26639,53.4126033940322,7.728334658382919
15745,Wildau,15745,52.3246014298791,13.623093385189984
72218,Wildberg,72218,48.64401006409966,8.767838527066818
08134,Wildenfels,08134,50.65154320714645,12.596468213940614
27793,Wildeshausen,27793,52.89321264023967,8.435901980027788
26382–26389,Wilhelmshaven,26382,53.52078607205423,8.108388954605491
08112,Wilkau-Haßlau,08112,50.672331814550695,12.519650599093158
34439,Willebadessen,34439,51.60637634971571,9.086848019154228
47877,Willich,47877,51.26126312221322,6.512699366888903
"01723 (Grumbach, Helbigsdorf-Blankenstein, Kesselsdorf, Mohorn, Wilsdruff),01737 (Braunsdorf, Kleinopitz, Oberhermsdorf)Vorlage:Infobox Gemeinde in Deutschland/Wartung/PLZ enthält Text",Wilsdruff,01723,51.03199816836283,13.53403733454093
25554,Wilster,25554,53.92847511344225,9.373651540995173
92670,Windischeschenbach,92670,49.8002323210356,12.166339953398058
91575,Windsbach,91575,49.268711760555554,10.863247990000001
71364,Winnenden,71364,48.87293860840202,9.40755076318149
21423,Winsen (Luhe),21423,53.3564339960859,10.212269376909488
59955,Winterberg,59955,51.210902798590745,8.521495386383545
51688,Wipperfürth,51688,51.11408911358161,7.401067658462757
56422,Wirges,56422,50.471125673275864,7.795386719827587
"23966, 23968, 23970",Wismar,23966,53.885838444363166,11.444118688726334
57537,Wissen,57537,50.77265716910112,7.752830760674158
58452–58456,Witten,58452,51.42847924263454,7.334913072893641
19322,Wittenberge,19322,53.00269307265593,11.747922289405205
19243,Wittenburg,19243,53.52082526046343,11.062602533236785
02997,Wittichenau,02997,51.38206322337263,14.250299704971809
"29378, 29379",Wittingen,29378,52.720810649843756,10.742599913242188
54516,Wittlich,54516,49.98586070460489,6.906546736952815
26409,Wittmund,26409,53.59388592086045,7.767181641434087
16909,Wittstock/Dosse,16909,53.163498675276465,12.479314816956292
55286,Wörrstadt,55286,49.84166101725838,8.108253436587772
63939,Wörth am Main,63939,49.793029801754386,9.157631848568789
76744,Wörth am Rhein,76744,49.0442885643206,8.246674097646537
93086,Wörth an der Donau,93086,49.00174842873563,12.396903000957854
42489,Wülfrath,42489,51.28121645433314,7.036441269503957
52146,Würselen,52146,50.825495757071614,6.1354347651406345
97070–97084,Würzburg,97070,49.79438567959911,9.932026384276169
37213–37218,Witzenhausen,37213,51.34160502810078,9.856389585852714
17348,Woldegk,17348,53.46541801649944,13.571132374916386
77709,Wolfach,77709,48.30482322919886,8.22860395843839
"38300, 38302, 38304",Wolfenbüttel,38300,52.15651391224037,10.554232465688175
34466,Wolfhagen,34466,51.32339728512476,9.177136440211132
91639,Wolframs-Eschenbach,91639,49.22723218300721,10.726826041709579
82515,Wolfratshausen,82515,47.90850303001283,11.433587071953827
38440–38448,Wolfsburg,38440,52.419346002558484,10.76744530933236
67752,Wolfstein,67752,49.584817165079365,7.6119977119047615
17438,Wolgast,17438,54.05061187335204,13.763065517297802
09429,Wolkenstein,09429,50.659256488131085,13.076138713994686
"39326 (Elbeu, Farsleben, Glindenberg, Mose, Wolmirstedt)Vorlage:Infobox Gemeinde in Deutschland/Wartung/PLZ enthält Text",Wolmirstedt,39326,52.26422179872028,11.61481969253948
"67547, 67549, 67550, 67551",Worms,67547,49.62970065387197,8.362020936921601
16269,Wriezen,16269,52.719488795583906,14.130525315112855
95632,Wunsiedel,95632,50.039457800435414,12.00441897198839
31515,Wunstorf,31515,52.432238535985896,9.404134704538485
42103–42399,Wuppertal,42103,51.255928890363755,7.144280174282068
07343,Wurzbach,07343,50.438117382978724,11.528325971489362
04808,Wurzen,04808,51.38382682717162,12.767554308067014
29462,Wustrow (Wendland),29462,52.92592756058719,11.121114963523132
25938,Wyk auf Föhr,25938,54.69755188026316,8.52497899065097
46509,Xanten,46509,51.6709725497454,6.43988859562606
06780,Zörbig,06780,51.629382228001816,12.108090856003624
53909,Zülpich,53909,50.68594391183394,6.663157325607863
06895,Zahna-Elster,06895,51.875136036025026,12.789316411430196
19246,Zarrentin am Schaalsee,19246,53.5436569717118,10.918808446421663
16792,Zehdenick,16792,52.98922719269357,13.325876564231189
97475,Zeil am Main,97475,50.01491626865285,10.594506963039724
"06711, 06712",Zeitz,06711,51.08231855597826,12.115746242391305
56856,Zell (Mosel),56856,50.02844426114082,7.173770669875222
77736,Zell am Harmersbach,77736,48.346364064060296,8.07007342567122
79669,Zell im Wiesental,79669,47.712075949859354,7.855673403094234
98544,Zella-Mehlis,98544,50.65545675076029,10.65052462251789
"39261,39264 (Bias, Bornum, Buhlendorf, Deetz, Dobritz, Gehrden, Gödnitz, Grimme, Güterglück, Hohenlepte, Jütrichau, Leps, Lindau, Luso, Moritz, Nedlitz, Nutha, Polenzko, Pulspforde, Reuden, Steutz, Straguth, Walternienburg, Zernitz)Vorlage:Infobox Gemeinde in Deutschland/Wartung/PLZ enthält Text",Zerbst/Anhalt,39261,51.96681260858209,12.089137704850748
"07937, 07950",Zeulenroda-Triebes,07937,50.64028935523979,11.987618370337477
27404,Zeven,27404,53.29753616996771,9.286039117761034
07924,Ziegenrück,07924,50.61075128803192,11.715616912234042
34289,Zierenberg,34289,51.34460399845111,9.286669309196515
14793,Ziesar,14793,52.25087724017341,12.315780999421964
90513,Zirndorf,90513,49.441885039574835,10.949792452999418
"02763,02788 (Dittelsdorf, Hirschfelde, Schlegel, Wittgendorf)Vorlage:Infobox Gemeinde in Deutschland/Wartung/PLZ enthält Text",Zittau,02763,50.899816000547865,14.792659501109435
15806,Zossen,15806,52.20731280381072,13.457285455485762
"09405,09434 (Krumhermersdorf)Vorlage:Infobox Gemeinde in Deutschland/Wartung/PLZ enthält Text",Zschopau,09405,50.75174168365628,13.060724671440607
08297,Zwönitz,08297,50.64264146318387,12.823371909666804
66482,Zweibrücken,66482,49.24643000088453,7.368746102922795
04442,Zwenkau,04442,51.2177220455917,12.320011127864214
"08056, 08058, 08060, 08062, 08064, 08066",Zwickau,08056,50.71023428570784,12.49176666767358
94227,Zwiesel,94227,49.02294430694006,13.243132472555205
64673,Zwingenberg,64673,49.724822740691486,8.605493468417553
